Longitude,Latitude,Name,Address
-77.032392,38.905336,"WAWA [no fuel]-Washington,DC","1 Thomas Circle NW, Washington DC,DC 20005|(202) 916-8884|24 Hrs|6007"
-77.04292,38.90441,"WAWA [no fuel]-Washington,DC","1111 19th St Nw, Washington,DC 20036|(202) 470-1816|24 hrs|6001"
-77.06319,38.90586,"WAWA [no fuel]-Washington,DC","1222 Wisconsin Avenue, Washington,DC 20007|(202) 559-2717|24 hrs|6003"
-77.029055,38.899595,"WAWA [Diesel]-Washington,DC","1250 H Street NW, Washington,DC 20005|(202) 552-5524|12:AM-12:AM|6008"
-77.03362,38.92853,"WAWA [no fuel]-Washington,DC","1400 Irving Street Nw, Washington,DC 20010|(202) 470-0238|24 hrs|6005"
-77.04266,38.92137,"WAWA [no fuel]-Washington,DC","2424 18th Street Nw, Washington,DC 20009|(202) 559-2683|24 hrs|6006"
-77.07916,38.94884,"WAWA [no fuel]-Washington,DC","4530 40th Street Nw A, Washington,DC 20016|(202) 558-0404|24 hrs|6004"
-75.660427,39.631847,"WAWA [no fuel]-Bear,DE","1100 Pulaski Highway, Bear,DE 19701|(302) 834-0249|24 hrs|823"
-75.69455,39.61942,"WAWA [Diesel]-Bear,DE","1605 Pulaski Highway, Bear,DE 19702|(302) 838-8050|24 hrs|844"
-75.68428,39.58462,"WAWA [Diesel]-Bear,DE","3601 Wrangle Hill Road, Bear,DE 19701|(302) 298-0854|24 hrs|870"
-75.070702,38.539963,"WAWA [no fuel]-Bethany Beach,DE","774 Garfield Parkway, Bethany Beach,DE 19930|(302) 537-2663|24 hrs|836"
-75.53937,39.112665,"WAWA [Diesel]-Camden,DE","200 East Street, Camden,DE 19934|(302) 455-7791|24 hrs|876"
-75.44432,39.81258,"WAWA [no fuel]-Claymont,DE","201 Naamans Rd, Claymont,DE 19703|(302) 798-9899|24 hrs|816"
-75.46908,39.79428,"WAWA [Diesel]-Claymont,DE","2621 Philadelphia Pike, Claymont,DE 19703|(302) 798-2411|24 hrs|854"
-75.45533,39.817451,"WAWA [Diesel]-Claymont,DE","601 Naamans Rd, Claymont,DE 19703|(302) 798-1682|24 hrs|867"
-75.557233,38.456088,"WAWA [Diesel]-Delmar,DE","38711 Sussex Hwy, Delmar,DE 19940|(302) 846-3272|24 hrs|856"
-75.5399552,39.1590432,"WAWA [Diesel]-Dover,DE","1450 Forest Ave, Dover,DE 19904|(302) 734-4703|24 hrs|855"
-75.501124,39.122982,"WAWA [Diesel]-Dover,DE","1525 E Lebanon Road, Dover,DE 19904|(302) 697-4070|24 hrs|845"
-75.547284,39.194921,"WAWA [Diesel]-Dover,DE","2800 North DuPont Hwy, Dover,DE 19901|(302) 678-2385|3 am-12 am|848"
-75.513166,39.158296,"WAWA [Diesel]-Dover,DE","298 South Dupont Highway, Dover,DE 19901|(302) 734-2871|3 am-11 am|838"
-75.697286,39.788547,"WAWA [no fuel]-Hockessin,DE","605 Yorklyn Road, Hockessin,DE 19707|(302) 234-1443|24 hrs|842"
-75.153961,38.744066,"WAWA [Diesel]-Lewes,DE","17663 Dartmouth Dr, Lewes,DE 19958|(302) 645-5637|24 hrs|834"
-75.65683,39.721287,"WAWA [Diesel]-Marshallton ,DE","2030 Limestone Road, Marshallton ,DE 19808|(302) 633-4617|24 hrs|858"
-75.648744,39.500437,"WAWA [no fuel]-Middletown,DE","2398 Dupont Parkway, Middletown,DE 19709|(302) 378-8270|24 hrs|828"
-75.728201,39.448383,"WAWA [no fuel]-Middletown,DE","528 W Main Street, Middletown,DE 19709|(302) 376-1780|24 hrs|843"
-75.680327,39.452996,"WAWA [Diesel]-Middletown,DE","690 Middletown Odessa Road, Middletown,DE 19709|(302) 378-5314|24 hrs|859"
-75.4314,38.92803,"WAWA [Diesel]-Milford,DE","902 N Dupont Blvd, Milford,DE 19963|(302) 424-2300|24 hrs|851"
-75.295744,38.584754,"WAWA [Diesel]-Millsboro,DE","102 E Dupont Highway, Millsboro,DE 19966|(302) 934-1844|24 hrs|837"
-75.195444,38.633986,"WAWA [Diesel]-Millsboro,DE","24930 John J Williams Hwy, Millsboro,DE 19966|(302) 945-1834|24 hrs|865"
-75.60779,39.663485,"WAWA [Diesel]-New Castle,DE","117 S Dupont Hwy, New Castle,DE 19720|(302) 322-9650|24 hrs|866"
-75.625749,39.641216,"WAWA [Diesel]-New Castle,DE","1400 Beaver Brook Plaza, New Castle,DE 19720|(302) 328-7459|24 hrs|857"
-75.580421,39.692774,"WAWA [Diesel]-New Castle,DE","1515 N DuPont Highway, New Castle,DE 19720|(302) 324-0429|24 hrs|852"
-75.627395,39.6767,"WAWA [Diesel]-New Castle,DE","183 Airport Road, New Castle,DE 19720|(302) 323-9822|24 hrs|841"
-75.562387,39.709667,"WAWA [Diesel]-New Castle,DE","4000 N Dupont Highway, New Castle,DE 19720|(302) 661-2600|24 hrs|840"
-75.59886,39.69444,"WAWA [Diesel]-New Castle,DE","7 E Commons Blvd, New Castle,DE 19720|(302) 328-1872|24 hrs|863"
-75.700532,39.699907,"WAWA [Diesel]-Newark,DE","1750 Capitol Trail, Newark,DE 19711|(302) 737-8138|24 hrs|861"
-75.735488,39.662281,"WAWA [no fuel]-Newark,DE","274 East Chestnut Hill Road, Newark,DE 19713|(302) 453-9195|5 am- 11 pm|819"
-75.7621,39.60274,"WAWA [Diesel]-Newark,DE","2754 && 2748 Pulaski Hwy, Newark,DE 19702|(302) 838-8500|24 hrs|850"
-75.678842,39.68621,"WAWA [Diesel]-Newark,DE","4651 Stanton Ogletown Rd, Newark,DE 19713|(302) 368-4985|24 hrs|868"
-75.733272,39.684578,"WAWA [Diesel]-Newark,DE","601 Ogletown Rd, Newark,DE 19711|(302) 737-2057|24 hrs|860"
-75.105428,38.713287,"WAWA [Diesel]-Rehoboth Beach,DE","30155 Veterans Way, Rehoboth Beach,DE 19971|(302) 227-1893|24 hrs|871"
-75.1255717,38.7254595,"WAWA [Diesel]-Rehoboth Beach,DE","4500 Highway 1, Rehoboth Beach,DE 19971|(302) 644-4210|24 hrs|849"
-75.593665,38.659316,"WAWA [Diesel]-Seaford,DE","22929 Sussex Hwy, Seaford,DE 19973|(302) 888-9442|24 hrs|874"
-75.594077,39.282406,"WAWA [Diesel]-Smyrna,DE","500 Jimmy Drive, Smyrna,DE 19977|(302) 653-3290|24 hrs|853"
-75.614919,39.316212,"WAWA [no fuel]-Smyrna,DE","5632 S. Dupont Parkway, Smyrna,DE 19977|(302) 653-5312|24 hrs|830"
-75.55132,39.81011,"WAWA [Diesel]-Talleyville,DE","4030 Concord Pike, Talleyville,DE 19803|(302) 477-1433|24 hrs|862"
-75.545712,39.826317,"WAWA [Diesel]-Wilmington,DE","1702 Rocky Run Pkwy, Wilmington,DE 19803|(302) 426-2145|24 hrs|872"
-75.53313,39.78871,"WAWA [no fuel]-Wilmington,DE","400 Wilson Rd, Wilmington,DE 19803|(302) 652-2373|24 hrs|811"
-75.691274,39.735226,"WAWA [no fuel]-Wilmington,DE","4555 New Linden Hill Road, Wilmington,DE 19808|(302) 368-8561|24 hrs|831"
-75.49997,39.771126,"WAWA [no fuel]-Wilmington,DE","731 Philadelphia Pike, Wilmington,DE 19805|(302) 762-9840|5 am- 11 pm|801"
-75.598409,39.739942,"WAWA [no fuel]-Wilmington,DE","915 New Rd, Wilmington,DE 19805|(302) 995-6641|24 hrs|810"
-81.346157,28.662583,"WAWA [Diesel]-Altamonte Springs,FL","1390 E Altamonte Drive, Altamonte Springs,FL 32701|(407) 262-0338|24 hrs|5186"
-81.42059,28.66618,"WAWA [Diesel]-Altamonte Springs,FL","919 West Sr 436, Altamonte Springs,FL 32714|(407) 389-4281|24 hrs|5179"
-81.468432,28.653956,"WAWA [Diesel]-Apopka,FL","1615 S Orange Blossom Trail, Apopka,FL 32703|(407) 464-3171|24 hrs|5112"
-81.521236,28.679809,"WAWA [Diesel]-Apopka,FL","449 West Main St, Apopka,FL 32712|(407) 884-0731|24 hrs|5140"
-81.778537,28.054574,"WAWA [Diesel]-Auburndale,FL","334 Havendale Blvd, Auburndale,FL 33823|(863) 967-3710|24 hrs|5137"
-81.331835,28.479859,"WAWA [Diesel]-Belle Isle,FL","4416 Hoffner Ave, Belle Isle,FL 32812|(407) 710-0220|24 hrs|5279"
-82.053902,29.058771,"WAWA [Diesel]-Belleview,FL","5726 SE Abshier Blvd, Belleview,FL 34420|(352) 364-9799|24 hrs|5273"
-80.073502,26.572883,"WAWA [Diesel]-Boynton Beach,FL","1965 Hypoluzo Rd, Boynton Beach,FL 33426|(561) 323-7515|24 hrs|5239"
-80.18877,26.553355,"WAWA [Diesel]-Boynton Beach,FL","9926 Lyons Rd, Boynton Beach,FL 33472|(561) 770-7080|24 hrs|5330"
-82.43467,27.4858,"WAWA [Diesel]-Bradenton,FL","10807 SR 64 East, Bradenton,FL 34211|(941) 357-2969|24 hrs|5258"
-82.394689,27.431142,"WAWA [Diesel]-Bradenton,FL","14510 State Rd Sr 70 East, Bradenton,FL 34202|(941) 752-3013|24 hrs|5185"
-82.5867571,27.4623227,"WAWA [Diesel]-Bradenton,FL","2509 W Cortez Rd, Bradenton,FL 34207|(941) 900-4223|24 hrs|5271"
-82.50832,27.49905,"WAWA [Diesel]-Bradenton,FL","4455 Sr 64 East, Bradenton,FL 34208|(941) 749-0560|24 hrs|5178"
-82.504941,27.445649,"WAWA [Diesel]-Bradenton,FL","4506 53Rd Ave, Bradenton,FL 34203|(941) 756-7175|24 hrs|5203"
-82.576164,27.447345,"WAWA [Diesel]-Bradenton,FL","5306 14th Street, Bradenton,FL 34207|(941) 756-1249|24 hrs|5177"
-82.56231,27.49329,"WAWA [Diesel]-Bradenton,FL","701 1st Street E, Bradenton,FL 34205|(941) 900-4449|24 hrs|5165"
-82.310881,27.938357,"WAWA [Diesel]-Brandon,FL","1710 W Brandon Blvd, Brandon,FL 33510|(813) 400-5296|24 hrs|5197"
-82.51321,28.53287,"WAWA [Diesel]-Brooksville,FL","12984 Cortez Blvd, Brooksville,FL 34613|(352) 597-8029|24 hrs|5184"
-82.402024,28.540627,"WAWA [Diesel]-Brooksville,FL","20075 Cortez Blvd, Brooksville,FL 34601|(352) 519-1313|24 hrs|5259"
-81.97383,26.603737,"WAWA [Diesel]-Cape Coral,FL","2603 Santa Barbara Blvd, Cape Coral,FL 33914|(239) 300-9211|24 Hrs|5356"
-81.940624,26.666793,"WAWA [Diesel]-Cape Coral,FL","761 Del Prado Blvd North, Cape Coral,FL 33909-1730|(239) 458-1064|24 hrs|5170"
-81.32298,28.64399,"WAWA [Diesel]-Casselberry,FL","1033 SR 436, Casselberry,FL 32707|(407) 815-2225|24 hrs|5324"
-81.33303,28.68401,"WAWA [Diesel]-Casselberry,FL","23 Seminola Blvd, Casselberry,FL 32707|(407) 388-1488|24 hrs|5128"
-82.72864,27.91546,"WAWA [Diesel]-Clearwater,FL","15701 US Highway 19 N, Clearwater,FL 33764|(727) 531-1061|24 hrs|5149"
-82.74743,27.960045,"WAWA [Diesel]-Clearwater,FL","2177 Gulf to Bay Blvd, Clearwater,FL 33758|(727) 442-7506|24 hrs|5163"
-82.73678,28.01315,"WAWA [Diesel]-Clearwater,FL","26508 US Hwy 19 N, Clearwater,FL 33761|(727) 314-8002|24 hrs|5294"
-81.687864,28.378415,"WAWA [Diesel]-Clermont,FL","16126 Greater Groves Blvd, Clermont,FL 34714|(352) 252-9784|24 hrs|5121"
-81.74051,28.542569,"WAWA [Diesel]-Clermont,FL","1909 S Highway 27, Clermont,FL 34711|(352) 243-2594|24 hrs|5144"
-80.742099,28.355255,"WAWA [Diesel]-Cocoa,FL","923 West King St, Cocoa,FL 32922|(321) 307-2230|24 hrs|5265"
-80.223635,26.272768,"WAWA [Diesel]-Coral Springs,FL","7305 W Sample Rd, Coral Springs,FL 33065|(754) 812-8778|24 Hrs|5338"
-81.648304,28.229468,"WAWA [Diesel]-Davenport,FL","43582 Hwy 27, Davenport,FL 33837|(863) 840-9069|24 hrs|5230"
-81.5906811,28.25959,"WAWA [Diesel]-Davenport,FL","8103 Lake Wilson Rd, Davenport,FL 33896|(863) 216-5779|24 hrs|5299"
-80.22693,26.09094,"WAWA [Diesel]-Davie,FL","2500 SW 64th Ave, Davie,FL 33317|(954) 361-0940|24 hrs|5249"
-80.207533,26.063515,"WAWA [Diesel]-Davie,FL","4700 South SR 7, Davie,FL 33314|(754) 888-5113|24 Hrs|5314"
-80.230571,26.045476,"WAWA [Diesel]-Davie,FL","6350 Stirling Rd, Davie,FL 33314|(954) 526-2290|24 hrs|5193"
-81.047818,29.2199,"WAWA [Diesel]-Daytona Beach,FL","1000 Mason Ave, Daytona Beach,FL 32117|(386) 267-5005|12:AM-12:AM|5332"
-81.02248,29.209943,"WAWA [Diesel]-Daytona Beach,FL","120 S Ridgewood Ave, Daytona Beach,FL 32114|(386) 296-1953|24 hrs|5287"
-81.072797,29.191234,"WAWA [Diesel]-Daytona Beach,FL","1900 International Speedway Blvd, Daytona Beach,FL 32114|(386) 272-9002|24 hrs|5296"
-80.11951,26.3173,"WAWA [Diesel]-Deerfield Beach,FL","20 SW 12th Ave, Deerfield Beach,FL 33442|(754) 202-2426|24 hrs|5242"
-80.1545955,26.2745691,"WAWA [Diesel]-Deerfield Beach,FL","2271 W Sample Rd, Deerfield Beach,FL 33442|(754) 200-2987|24 hrs|5195"
-81.303804,28.998359,"WAWA [Diesel]-Deland,FL","1700 S Woodland Blvd, Deland,FL 32720|(386) 327-4048|24 Hrs|5292"
-80.205465,26.453745,"WAWA [Diesel]-Delray Beach,FL","10100 Atlantic Ave, Delray Beach,FL 33446|(561) 945-0070|24 hrs|5339"
-81.2289281,28.9464489,"WAWA [Diesel]-Deltona,FL","3400 Howland Blvd, Deltona,FL 32725|(407) 955-4551|24 hrs|5354"
-80.337662,25.805687,"WAWA [Diesel]-Doral,FL","3300 NW 87th Avenue, Doral,FL 33172|(786) 558-1041|3am-2am|5357"
-80.202388,26.120395,"WAWA [Diesel]-Plantation,FL","13 S State Road 7, Plantation,FL 33317|(754) 240-9440|24 Hrs|5331"
-80.17734,26.12118,"WAWA [Diesel]-Fort Lauderdale,FL","2620 W Broward Blvd, Fort Lauderdale,FL 33312|(954) 652-1003|24 hrs|5232"
-80.156227,26.202778,"WAWA [Diesel]-Fort Lauderdale,FL","6191 Powerline Rd, Fort Lauderdale,FL 33309|(954) 666-5883|24 hrs|5234"
-81.770133,26.617773,"WAWA [Diesel]-Fort Myers,FL","11031 Colonial Blvd, Fort Myers,FL 33905|(239) 226-1480|24 hrs|5200"
-81.87102,26.55766,"WAWA [Diesel]-Fort Myers,FL","12701 S Cleveland Ave, Fort Myers,FL 33907|(239) 275-1020|24 hrs|5169"
-81.86424,26.59616,"WAWA [Diesel]-Fort Myers,FL","2370 Colonial Blvd, Fort Myers,FL 33907|(239) 275-4142|24 hrs|5168"
-80.3259639,27.4269296,"WAWA [Diesel]-Fort Pierce,FL","2101 S US Hwy 1, Fort Pierce,FL 34950|(772) 236-7060|24 Hrs|5387"
-80.381755,27.417288,"WAWA [Diesel]-Fort Pierce,FL","5575 Okeechobee Rd, Fort Pierce,FL 34947|(772) 252-1103|24 hrs|5254"
-82.313032,29.651748,"WAWA [Diesel]-Gainesville,FL","1007 East University Ave, Gainesville,FL 32601|(352) 364-0140|24 Hrs|5313"
-82.343659,29.652324,"WAWA [Diesel]-Gainesville,FL","1614 West University Avenue, Gainesville,FL 32603|(352) 433-0211|24 Hrs|5385"
-82.338527,29.674211,"WAWA [Diesel]-Gainesville,FL","2305 NW 13th St, Gainesville,FL 32608|(352) 448-7785|24 Hrs|5384"
-82.35845,29.633111,"WAWA [Diesel]-Gainesville,FL","2373 SW Archer Road, Gainesville,FL 32608|(352) 505-4333|24 Hrs|5325"
-82.389981,29.616119,"WAWA [Diesel]-Gainesville,FL","4322 SW Archer Rd, Gainesville,FL 33068|(352) 505-2744|24 Hrs|5323"
-80.147684,26.618388,"WAWA [Diesel]-Greenacres,FL","6566 Lake Worth Blvd, Greenacres,FL 33467|(561) 619-4040|24 hrs|5212"
-80.4341471,25.9392106,"WAWA [Diesel]-Hialeah Gardens,FL","13891 W Okeechobee Road, Hialeah Gardens,FL 33018|(786) 761-1190|24 Hrs|5358"
-80.325331,25.866809,"WAWA [Diesel]-Hialeah Gardens,FL","7878 NW 103 Street, Hisleah Gardens,FL 33016|(786) 693-1196|24 Hrs|5378"
-82.740864,28.186962,"WAWA [Diesel]-Holiday,FL","1929 US Hwy 19, Holiday,FL 34691|(727) 934-7464|24 hrs|5181"
-82.6657607,28.33122,"WAWA [Diesel]-Hudson,FL","9021 SR 52, Hudson,FL 34669|(727) 605-0022|24 hrs|5275"
-81.731463,30.336735,"WAWA [Diesel]-Jacksonville,FL","1004 Edgewood Ave N, Jacksonville,FL 32254|(904) 720-2165|24 hrs|5351"
-81.509673,30.286352,"WAWA [Diesel]-Jacksonville,FL","11812 Beach Blvd, Jacksonville,FL 32224|(904) 352-1201|24 hrs|5264"
-81.464476,30.288199,"WAWA [Diesel]-Jacksonville,FL","13363 Beach Blvd, Jacksonville,FL 32246|(904) 900-7729|24 hrs|5321"
-81.503341,30.35979,"WAWA [Diesel]-Jacksonville,FL","2500 Monument Rd, Jacksonville,FL 32225|(904) 440-0205|24 hrs|5261"
-81.536687,30.254077,"WAWA [Diesel]-Jacksonville,FL","4866 Gate Pkwy, Jacksonville,FL 32246|(904) 900-7690|24 hrs|5257"
-81.617277,30.265414,"WAWA [Diesel]-Jacksonville,FL","5735 Philips Hwy, Jacksonville,FL 32216|(904) 730-1773|24 hrs|5333"
-81.75606,30.2704,"WAWA [Diesel]-Jacksonville,FL","6787 Wilson Blvd, Jacksonville,FL 32210|(904) 224-6223|24 hrs|5276"
-81.822327,30.197047,"WAWA [Diesel]-Jacksonville,FL","8251 Old Middleburg Rd S, Jacksonville,FL 32222|(904) 329-7007|24 hrs|5266"
-81.5580683,30.28707,"WAWA [Diesel]-Jacksonville,FL","9715 Beach Blvd, Jacksonville,FL 32246|(904) 559-1700|24 hrs|5274"
-81.739064,30.204121,"WAWA [Diesel]-Jaclsonville,FL","7911 Blanding Blvd, Jacksonville,FL 32244|(904) 717-3800|24 hrs|5349"
-81.443796,28.14749,"WAWA [Diesel]-Kissimmee,FL","1095 Cypress Pkwy, Kissimmee,FL 34759|(321) 265-4655|24 hrs|5293"
-81.35566,28.28604,"WAWA [Diesel]-Kissimmee,FL","2184 E Irlo Bronson Memorial, Kissimmee,FL 34744|(407) 944-1101|24 hrs|5102"
-81.403337,28.318552,"WAWA [Diesel]-Kissimmee,FL","2449 N Orange Blossom Trail, Kissimmee,FL 34744|(407) 870-1502|24 hrs|5104"
-81.483764,28.341228,"WAWA [Diesel]-Kissimmee,FL","3140 Vineland Road, Kissimmee,FL 34746|(407) 710-0070|24 hrs|5116"
-81.45739,28.30454,"WAWA [Diesel]-Kissimmee,FL","4397 W Vine St, Kissimmee,FL 34746|(321) 677-0394|24 hrs|5143"
-81.484287,28.256233,"WAWA [Diesel]-Kissimmee,FL","5035 S Orange Blossom Tr, Kissimmee,FL 34758|(407) 944-3302|24 hrs|5124"
-81.60468,28.34547,"WAWA [Diesel]-Kissimmee,FL","7940 West Irlo Bronson Hwy, Kissimmee,FL 34747|(407) 390-0929|24 hrs|5166"
-81.9225657,28.9172244,"WAWA [Diesel]-Lady Lake,FL","116 N Hwy 27/441, Lady Lake,FL 32159|(352) 448-0094|24 hrs|5326"
-81.95737,28.95374,"WAWA [Diesel]-Lady Lake,FL","13535 US Hwy 441, Lady Lake,FL 32159|(352) 436-4200|24 hrs|5322"
-81.30949,28.73228,"WAWA [Diesel]-Lake Mary,FL","3510 N US Hwy 17, Lake Mary,FL 32746|(407) 268-3725|24 hrs|5117"
-81.359066,27.300294,"WAWA [Diesel]-Lake Placid,FL","611 Dal Hall Blvd, Lake Placid,FL 33852|(863) 328-4937|24 hrs|5371"
-81.62003,27.95608,"WAWA [Diesel]-Lake Wales,FL","23623 US Hwy 27, Lake Wales,FL 33859|(863) 840-9777|24 hrs|5277"
-80.1129978,26.628978,"WAWA [Diesel]-Lake Worth,FL","3288 S Military Trail, Lake Worth,FL 33461|(561) 425-8266|24 hrs|5227"
-81.913363,28.012768,"WAWA [Diesel]-Lakeland,FL","3105 Bartow Rd 98 South, Lakeland,FL 33803|(863) 240-0866|24 hrs|5253"
-81.97467,28.09788,"WAWA [Diesel]-Lakeland,FL","4320 US Hwy 98 N, Lakeland,FL 33805|(863) 858-7659|24 hrs|5106"
-81.964237,27.967307,"WAWA [Diesel]-Lakeland,FL","5410 S Florida Ave, Lakeland,FL 33813|(863) 272-6774|24 hrs|5342"
-82.4345093,28.2220535,"WAWA [Diesel]-Land O Lakes,FL","25155 Maren Way, Land O Lakes,FL 34639|(813) 649-3544|24 hrs|5267"
-82.788482,27.928734,"WAWA [Diesel]-Largo,FL","1215 N Missouri Ave, Largo,FL 33770|(727) 581-0206|24 hrs|5176"
-82.815438,27.879842,"WAWA [Diesel]-Largo,FL","12750 Walsingham Rd, Largo,FL 33774|(727) 595-7850|24 hrs|5147"
-82.763084,27.89375,"WAWA [Diesel]-Largo,FL","8910 Ulmerton Rd, Largo,FL 33771|(727) 228-3122|24 hrs|5141"
-80.252205,26.172975,"WAWA [Diesel]-Lauderhill,FL","4401 NW 76 Ave, Lauderhill,FL 33351|(754) 900-5080|24 hrs|5278"
-82.4829163,28.892289,"WAWA [Diesel]-Lecanto,FL","2932 W Norvell Bryant Hwy, Lecanto,FL 34461|(352) 508-6453|24 hrs|5320"
-81.887005,28.82822,"WAWA [Diesel]-Leesburg,FL","1400 W North Blvd, Leesburg,FL 34748|(352) 204-9605|24 hrs|5290"
-81.34484,28.69763,"WAWA [Diesel]-Longwood,FL","162 E Sr 434 , Longwood,FL 32750|(407) 262-0305|24 hrs|5156"
-80.200253,26.253832,"WAWA [Diesel]-Margate,FL","2000 N SR 7, Margate,FL 33063|(754) 229-4052|24 hrs|5235"
-80.603585,28.0808215,"WAWA [Diesel]-Melbourne,FL","1105 Palmetto Ave, Melbourne,FL 32901|(321) 325-2265|24 hrs|5316"
-80.698056,28.11942,"WAWA [Diesel]-Melbourne,FL","4429 W Eau Gallie Blvd, Melbourne,FL 32901|(321) 373-8112|24 hrs|5283"
-80.371714,25.598581,"WAWA [Diesel]-Miami,FL","11101 SW 184 St, Miami,FL 33157|(786) 408-6620|24 hrs|5243"
-80.4159342,25.6564762,"WAWA [Diesel]-Miami,FL","11990 SW 137 Ave, Miami,FL 33186|(786) 870-4550|24 hrs|5245"
-80.188682,25.928142,"WAWA [Diesel]-Miami,FL","590 NE 167 Street, Miami,FL 33162|(786) 677-4366|6am-10pm|5244"
-80.30873,25.74846,"WAWA [Diesel]-Miami,FL","6971 SW 24th St, Miami,FL 33155|(786) 471-0804|24 hrs|5260"
-80.247279,25.939053,"WAWA [Diesel]-Miami Gardens,FL","17942 NW 27 Ave, Miami Gardens,FL 33056|(786) 422-1415|24 Hrs|5284"
-81.8123353,30.1146455,"WAWA [Diesel]-Middleburg,FL","1563 Blanding Blvd, Middleburg,FL 32068|(904) 712-6601|24 hrs|5289"
-80.264036,25.99365,"WAWA [Diesel]-Miramar,FL","1700 South Douglas Rd, Miramar,FL 33025|(754) 241-3606|24 Hrs|5353"
-81.663641,28.822002,"WAWA [Diesel]-Mount Dora,FL","17700 US Hwy 441, Mount Dora,FL 32757|(352) 720-6266|24 hrs|5270"
-81.704423,26.065743,"WAWA [Diesel]-Naples,FL","12456 Tamiami Trail E, Naples,FL 34113|(239) 920-5177|24 hrs|5228"
-81.751341,26.153987,"WAWA [Diesel]-Naples,FL","4787 Radio Rd, Naples,FL 34104|(239) 280-9712|24 hrs|5238"
-82.73641,28.21772,"WAWA [Diesel]-New Port Richey,FL","4026 US Highway 19, New Port Richey,FL 34652|(727) 847-5134|24 hrs|5115"
-82.676674,28.279988,"WAWA [Diesel]-Port Richey,FL","8330 Ridge Rd, Port Richey,FL 34668|(727) 848-5425|24 hrs|5109"
-80.9411162,29.0149092,"WAWA [Diesel]-New Smyrna Beach,FL","1780 SR 44, New Smyrna Beach,FL 32168|(386) 266-8725|24 hrs|5222"
-82.4537405,27.1245829,"WAWA [Diesel]-Nokomis,FL","100 S Tamiami Trail, Nokomis,FL 34275|(941) 786-0791|24 hrs|5281"
-80.2208779,26.2092352,"WAWA [Diesel]-North Lauderdale,FL","7105 Ncnab Rd, North Lauderdale,FL 33068|(754) 732-3899|24 Hrs|5372"
-82.14013,29.17888,"WAWA [Diesel]-Ocala,FL","1001 S Pine Ave, Ocala,FL 34471|(352) 509-6414|24 hrs|5272"
-82.095865,29.163735,"WAWA [Diesel]-Ocala,FL","3080 SE Maricamp Rd, Ocala,FL 34471|(352) 840-0661|3am-2am|5337"
-82.177568,29.185697,"WAWA [Diesel]-Ocala,FL","3312 W Silver Springs, Ocala,FL 34475|(352) 433-4648|24 hrs|5291"
-82.08645,29.19828,"WAWA [Diesel]-Ocala,FL","3601 East Silver Springs Blvd, Ocala,FL 34470|(352) 877-3225|24 hrs|5336"
-82.191213,29.145041,"WAWA [Diesel]-Ocala,FL","4025 SW College Rd, Ocala,FL 34474|(352) 414-4017|24 hrs|5305"
-82.6195162,28.1900638,"WAWA [Diesel]-Odessa,FL","12048 SR 54, Odessa,FL 33556|(813) 445-5770|24 hrs|5334"
-80.831345,27.243969,"WAWA [Diesel]-Okeechobee,FL","200 NW Park St, Okeechobee,FL 34972|(863) 225-7609|12:AM-12:AM|5383"
-81.295823,28.917056,"WAWA [Diesel]-Orange City,FL","2522 Enterprise Rd, Orange City,FL 32763|(386) 456-0015|24 hrs|5171"
-81.70343,30.18625,"WAWA [Diesel]-Orange Park,FL","300 Park Ave, Orange Park,FL 32073|(904) 773-4884|24 hrs|5328"
-81.7560225,30.1487663,"WAWA [Diesel]-Orange Park,FL","678 Blanding Blvd, Orange Park,FL 32073|(386) 206-1004|24 hrs|5263"
-81.241065,28.509422,"WAWA [Diesel]-Orlando,FL","10052 Curry Ford Rd, Orlando,FL 32825|(407) 552-9123|24 hrs|5207"
-81.21647,28.59753,"WAWA [Diesel]-Orlando,FL","11750 University Blvd, Orlando,FL 32817|(407) 384-7545|24 hrs|5145"
-81.39662,28.55241,"WAWA [Diesel]-Orlando,FL","1200 West Colonial Drive, Orlando,FL 32805|(407) 835-8985|24 hrs|5150"
-81.309943,28.528098,"WAWA [Diesel]-Orlando,FL","1201 S Semoran Blvd, Orlando,FL 32807|(321) 663-0766|24 hrs|5206"
-81.403845,28.390473,"WAWA [Diesel]-Orlando,FL","12083 S Orange Blossom Trail, Orlando,FL 32837|(407) 812-9790|24 hrs|5155"
-81.195526,28.56608,"WAWA [Diesel]-Orlando,FL","12321 E Colonial Drive, Orlando,FL 32826|(407) 273-0913|24 hrs|5161"
-81.382355,28.365654,"WAWA [Diesel]-Orlando,FL","13585 S Orange Ave, Orlando,FL 32824|(407) 852-0360|24 hrs|5132"
-81.310321,28.364638,"WAWA [Diesel]-Orlando,FL","13830 Boggy Creek Rd, Orlando,FL 32824|(321) 465-7774|24 hrs|5366"
-81.166481,28.564616,"WAWA [Diesel]-Orlando,FL","14548 E Colonial Dr, Orlando,FL 32826|(407) 275-6205|24 hrs|5142"
-81.23354,28.34869,"WAWA [Diesel]-Orlando,FL","14876 Narcoosse Rd, Orlando,FL 32832|(407) 856-5960|24 hrs|5187"
-81.288962,28.516044,"WAWA [Diesel]-Orlando,FL","2225 South Goldenrod Rd, Orlando,FL 32822|(407) 382-4185|24 hrs|5131"
-81.31008,28.573814,"WAWA [Diesel]-Orlando,FL","2239 North Semoran Blvd, Orlando,FL 32807|(407) 671-1061|24 hrs|5111"
-81.415532,28.577518,"WAWA [Diesel]-Orlando,FL","2507 N John Young Pkwy, Orlando,FL 32807|(407) 578-8574|24 hrs|5100"
-81.344963,28.524724,"WAWA [Diesel]-Orlando,FL","3025 Curry Ford Rd, Orlando,FL 32806|(407) 897-8117|24 hrs|5130"
-81.376981,28.508861,"WAWA [Diesel]-Orlando,FL","3100 S Orange Avenue, Orlando,FL 32806|(407) 855-9716|24 hrs|5157"
-81.418454,28.493702,"WAWA [Diesel]-Orlando,FL","3501 Millenia Blvd, Orlando,FL 32839|(407) 363-0455|24 hrs|5189"
-81.421932,28.411527,"WAWA [Diesel]-Orlando,FL","3951 Central Florida Pkwy, Orlando,FL 32837|(321) 257-8121|24 hrs|5205"
-81.334013,28.55282,"WAWA [Diesel]-Orlando,FL","4100 E Colonial Drive, Orlando,FL 32803|(407) 895-7521|24 hrs|5153"
-81.288014,28.480115,"WAWA [Diesel]-Orlando,FL","4700 South Goldenrod Rd, Orlando,FL 32822|(407) 380-9800|24 hrs|5103"
-81.4595744,28.5281025,"WAWA [Diesel]-Orlando,FL","5810 Raleigh St, Orlando,FL 32811|(407) 495-1822|24 hrs|5308"
-81.416055,28.610294,"WAWA [Diesel]-Orlando,FL","5820 Edgewater Drive, Orlando,FL 32810|(407) 291-1394|24 hrs|5164"
-81.457556,28.405762,"WAWA [Diesel]-Orlando,FL","5910 Central Florida Parkway, Orlando,FL 32821|(407) 345-5210|24 hrs|5101"
-81.28665,28.553324,"WAWA [Diesel]-Orlando,FL","608 N Goldenrod Rd, Orlando,FL 32807|(407) 249-9474|24 hrs|5134"
-81.31064,28.46956,"WAWA [Diesel]-Orlando,FL","6500 South Semoran Blvd, Orlando,FL 32822|(407) 859-3826|24 hrs|5136"
-81.466629,28.449465,"WAWA [Diesel]-Orlando,FL","6500 W Sand Lake Rd, Orlando,FL 32819|(407) 248-1213|24 hrs|5160"
-81.39793,28.46372,"WAWA [Diesel]-Orlando,FL","7030 South Orange Blossom Trail, Orlando,FL 32809|(407) 240-3238|24 hrs|5105"
-81.278282,28.569086,"WAWA [Diesel]-Orlando,FL","8049 East Colonial Dr, Orlando,FL 32807|(407) 381-1129|24 hrs|5113"
-81.363297,28.451616,"WAWA [Diesel]-Orlando,FL","8099 Orange Ave, Orlando,FL 32809|(407) 856-5905|24 hrs|5208"
-81.404364,28.440561,"WAWA [Diesel]-Orlando,FL","8574 S Orange Blossom Trail, Orlando,FL 32809|(407) 856-4631|24 hrs|5138"
-81.50593,28.38923,"WAWA [Diesel]-Orlando,FL","8894 Vinings Way Blvd, Orlando,FL 32836|(407) 613-2539|24 hrs|5209"
-81.25632,28.43293,"WAWA [Diesel]-Orlando,FL","9235 Narcoosee Rd, Orlando,FL 32827|(407) 207-4082|24 hrs|5174"
-81.24764,28.47876,"WAWA [Diesel]-Orlando,FL","9955 Lee Vista Blvd, Orlando,FL 32829|(407) 658-4515|24 hrs|5182"
-81.07178,29.27872,"WAWA [Diesel]-Ormond Beach,FL","600 W Granada Blvd, Ormond Beach,FL 32174|(386) 310-2265|24 hrs|5315"
-81.22513,28.654904,"WAWA [Diesel]-Oviedo,FL","1020 West Mitchell Hammock Rd, Oviedo,FL 32765|(407) 706-4943|24 hrs|5219"
-81.208715,28.626988,"WAWA [Diesel]-Oviedo,FL","3000 Alafaya Trail, Oviedo,FL 32765|(407) 359-0144|24 hrs|5118"
-82.03756,28.92773,"WAWA [Diesel]-Oxford,FL","11770 US 301, Oxford,FL 34484|(321) 222-9433|24 hrs|5282"
-80.649284,27.997618,"WAWA [Diesel]-Palm Bay,FL","850 Malabar Rd Se, Palm Bay,FL 32909|(321) 241-0677|24 hrs|5317"
-81.206366,29.476023,"WAWA [Diesel]-Palm Coast,FL","5600 SR 100 East, Palm Coast,FL 32164|(386) 361-4822|24 Hrs|5310"
-80.671422,28.201817,"WAWA [Diesel]-Palm Shores,FL","5605 Wickham Rd, Palm Shores,FL 32940|(321) 255-4861|24 hrs|5190"
-80.088665,26.650102,"WAWA [Diesel]-Palm Springs,FL","1771 South Congress Ave, Palm Springs,FL 33406|(561) 812-2192|24 hrs|5223"
-80.088806,26.617849,"WAWA [Diesel]-Palm Springs,FL","3950 South Congress Ave, Palm Springs,FL 33461|(561) 791-6658|24 hrs|5219"
-80.203462,26.326784,"WAWA [Diesel]-Parkland,FL","7705 N SR 7, Parkland,FL 33073|(954) 688-9374|24 hrs|5233"
-80.296392,25.993876,"WAWA [Diesel]-Pembroke Pines,FL","1600 S Hiatus Rd, Pembroke Pines,FL 33025|(954) 281-4094|24 hrs|5309"
-82.67705,27.84688,"WAWA [Diesel]-Pinellas Park,FL","3101 Gandy Blvd, Pinellas Park,FL 33782|(727) 576-1804|24 hrs|5110"
-82.680312,27.828803,"WAWA [Diesel]-Pinellas Park,FL","6200 N 34th St, Pinellas Park,FL 33781|(727) 526-8350|24 hrs|5125"
-82.152041,28.025862,"WAWA [Diesel]-Plant City,FL","2705 Thonotosassa Rd, Plant City,FL 33563|(813) 752-1508|24 hrs|5162"
-80.097876,26.276124,"WAWA [Diesel]-Pompano Beach,FL","3601 N Federal Hwy, Pompano Beach,FL 33064|(954) 657-8220|24 hrs|5194"
-82.116397,26.994076,"WAWA [Diesel]-Port Charlotte,FL","2525 Tamiami Trail, Port Charlotte,FL 33952|(941) 212-2581|24 hrs|5255"
-81.006788,29.12765,"WAWA [Diesel]-Port Orange,FL","1031 Dunlawton Ave, Port Orange,FL 32129|(386) 763-5503|24 hrs|5172"
-81.02468,29.111651,"WAWA [Diesel]-Port Orange,FL","1740 Dunlawton Ave, Port Orange,FL 32127|(386) 767-7554|24 hrs|5173"
-82.71768,28.28095,"WAWA [Diesel]-Port Richey,FL","8519 US 19 North, Port Richey,FL 34668|(727) 849-4725|24 hrs|5108"
-80.431862,27.263881,"WAWA [Diesel]-Port St Lucie,FL","10308 SW Tradition Pkwy, Port St Lucie,FL 34987|(772) 708-2515|24 hrs|5221"
-80.34095,27.31857,"WAWA [Diesel]-Port St Lucie,FL","260 SE Prima Vista Blvd, Port St Lucie,FL 43983|(772) 206-2209|24 hrs|5220"
-82.01147,26.8956,"WAWA [Diesel]-Punta Gorda,FL","26415 Indian Trail Dr, Punta Gorda,FL 33950|(941) 877-2395|24 hrs|5343"
-82.335865,27.893138,"WAWA [Diesel]-Riverview,FL","10115 Bloomingdale Ave, Riverview,FL 33578|(813) 620-3518|24 hrs|5133"
-82.33409,27.79677,"WAWA [Diesel]-Riverview,FL","13026 S US Highway 301, Riverview,FL 33578|(813) 671-9506|24 hrs|5175"
-82.269871,27.853165,"WAWA [Diesel]-Riverview,FL","13323 Boyette Rd, Riverview,FL 33569|(813) 437-2608|24 hrs|5286"
-82.32736,27.85819,"WAWA [Diesel]-Riverview,FL","9617 Highway 301 South, Riverview,FL 33578|(813) 677-0251|24 hrs|5167"
-80.092593,26.78225,"WAWA [Diesel]-Riviera Beach,FL","7289 Garden Rd, Riviera Beach,FL 33404|(561) 720-2523|24 hrs|5214"
-81.522104,30.100233,"WAWA [Diesel]-Saint Johns,FL","100 Bartram Market Dr, Saint Johns,FL 32259|(904) 671-0404|12:AM-12:AM|5382"
-82.66681,27.79257,"WAWA [Diesel]-Saint Petersburg,FL","2465 22nd Ave North, Saint Petersburg,FL 33713|(727) 822-8168|24 hrs|5159"
-82.68016,27.73486,"WAWA [Diesel]-Saint Petersburg,FL","3637 34th St S, Saint Petersburg,FL 33711|(727) 310-0560|24 hrs|5306"
-82.67967,27.80511,"WAWA [Diesel]-Saint Petersburg,FL","3650 34th St North, Saint Petersburg,FL 33713|(727) 521-5627|24 hrs|5148"
-82.71583,27.7814,"WAWA [Diesel]-Saint Petersburg,FL","5901 9th Ave N, Saint Petersburg,FL 33710|(772) 783-2003|24 hrs|5241"
-82.63819,27.85077,"WAWA [Diesel]-Saint Petersburg,FL","8601 4th St N, Saint Petersburg,FL 33701|(727) 350-1036|24 hrs|5252"
-82.7706,27.81463,"WAWA [Diesel]-Saint Petersburg,FL","9501 Bay Pines Blvd, Saint Petersburg,FL 33708|(727) 391-1483|24 hrs|5129"
-81.296996,28.787148,"WAWA [Diesel]-Sanford,FL","2690 W 25th Street, Sanford,FL 32771|(407) 302-4618|24 hrs|5158"
-81.33367,28.81223,"WAWA [Diesel]-Sanford,FL","4660 W Sr 46, Sanford,FL 32771|(407) 901-2620|24 hrs|5218"
-82.53153,27.36754,"WAWA [Diesel]-Sarasota,FL","3703 N Washington Blvd, Sarasota,FL 34234|(941) 351-0059|24 hrs|5217"
-82.465514,27.387418,"WAWA [Diesel]-Sarasota,FL","5208 University Pkwy, Sarasota,FL 34234|(941) 217-7479|24 hrs|5224"
-82.462788,27.269893,"WAWA [Diesel]-Sarasota,FL","5321 Clark Rd, Sarasota,FL 34233|(941) 328-3119|24 hrs|5304"
-81.434122,27.464911,"WAWA [Diesel]-Sebring,FL","3838 US Hwy 27 S, Sebring,FL 33870|(863) 328-4934|24 hrs|5370"
-81.5038,27.539963,"WAWA [Diesel]-Sebring,FL","6400 US 27 N, Sebring,FL 33870|(863) 328-4940|24 hrs|5373"
-82.3029687,27.9814505,"WAWA [Diesel]-Seffner,FL","11623 E Dr MLK Blvd, Seffner,FL 33584|(813) 820-1595|24 hrs|5335"
-82.761,27.83857,"WAWA [Diesel]-Seminole,FL","8800 Park Blvd, Seminole,FL 33777|(727) 452-6467|24 hrs|5215"
-81.403532,29.916824,"WAWA [Diesel]-St Augustine,FL","2222 SR 16, St Augustine,FL 32084|(904) 659-0083|24 Hrs|5361"
-81.25678,28.24667,"WAWA [Diesel]-St Cloud,FL","1125 E Irlo Bronson Memorial Hwy, St Cloud,FL 34769|(407) 891-7025|24 hrs|5123"
-80.252226,27.175316,"WAWA [Diesel]-Stuart,FL","2401 S Kanner Hwy, Stuart,FL 34994|(772) 228-4780|24 hrs|5204"
-80.207115,27.135353,"WAWA [Diesel]-Stuart,FL","5745 SE Federal Hwy, Stuart,FL 34997|(772) 419-9766|12:AM-12:AM|5307"
-80.2514171,27.190476,"WAWA [Diesel]-Stuart,FL","983 SE Federal Hwy, Stuart,FL 34994|(772) 646-0876|24 hrs|5329"
-80.2765,26.19313,"WAWA [Diesel]-Sunrise,FL","9400 W Commercial Blvd, Sunrise,FL 33351|(954) 256-9242|24 hrs|5236"
-82.502944,28.09299,"WAWA [Diesel]-Tampa,FL","15524 N Dale Mabry Hwy, Tampa,FL 33618|(727) 400-3988|24 hrs|5191"
-82.47773,27.995433,"WAWA [Diesel]-Tampa,FL","1760 Hillsborough Ave, Tampa,FL 33603|(813) 873-3649|24 hrs|5183"
-82.431464,28.068638,"WAWA [Diesel]-Tampa,FL","2325 E Fletcher Ave, Tampa,FL 33612|(813) 977-7493|24 hrs|5199"
-82.402875,27.965711,"WAWA [Diesel]-Tampa,FL","2502 N 50th St, Tampa,FL 33619|(813) 603-1910|24 hrs|5231"
-82.34911,27.92329,"WAWA [Diesel]-Tampa,FL","2604 South US Highway 301, Tampa,FL 33619|(813) 620-3076|24 hrs|5127"
-82.42684,28.0533,"WAWA [Diesel]-Tampa,FL","2901 E Fowler Ave, Tampa,FL 33612|(813) 971-5434|24 hrs|5107"
-82.50448,27.89325,"WAWA [Diesel]-Tampa,FL","3660 W Gandy Blvd, Tampa,FL 33611|(813) 502-0103|24 hrs|5301"
-82.36105,27.98099,"WAWA [Diesel]-Tampa,FL","3942 N US Highway 301, Tampa,FL 33619|(813) 623-3295|24 hrs|5114"
-82.504918,27.948963,"WAWA [Diesel]-Tampa,FL","401 N Dale Mabry Hwy, Tampa,FL 33609|(813) 874-2760|24 hrs|5122"
-82.40086,28.03199,"WAWA [Diesel]-Tampa,FL","5011 E Busch Blvd, Tampa,FL 33617|(813) 524-5378|24 hrs|5319"
-82.542406,28.024873,"WAWA [Diesel]-Tampa,FL","5702 W Waters Ave, Tampa,FL 33634|(813) 884-2031|24 hrs|5139"
-82.5623539,27.996405,"WAWA [Diesel]-Tampa,FL","7408 Hillsborough Ave, Tampa,FL 33610|(813) 620-0480|24 hrs|5146"
-82.56451,27.99618,"WAWA [Diesel]-Tampa,FL","7540 W Hillsborough Ave, Tampa,FL 33615|(813) 392-3656|24 hrs|5311"
-82.45207,28.08857,"WAWA [Diesel]-Tampa,FL","804 E Bears Ave, Tampa,FL 33613|(813) 631-5131|24 hrs|5154"
-82.459115,28.024892,"WAWA [Diesel]-Tampa,FL","8325 N Florida Ave, Tampa,FL 33604|(813) 867-2100|24 hrs|5196"
-82.506386,28.026353,"WAWA [Diesel]-Tampa,FL","8458 N Dale Mabry Hwy, Tampa,FL 33614|(813) 820-1228|24 hrs|5251"
-82.24513,27.894342,"WAWA [Diesel]-Valrico,FL","2224 Bloomingdale Ave, Valrico,FL 33594|(813) 654-8763|24 hrs|5151"
-82.235927,27.938559,"WAWA [Diesel]-Valrico,FL","2926 E State Rd 60, Valrico,FL 33594|(813) 661-6414|24 hrs|5152"
-82.405602,27.049506,"WAWA [Diesel]-Venice,FL","2344 South Tamiami Trail, Venice,FL 34293|(941) 518-0710|24 hrs|5216"
-82.383868,27.105546,"WAWA [Diesel]-Venice,FL","2970 Executive Dr, Venice,FL 34292|(941) 518-7404|24 hrs|5225"
-80.3892536,27.6228171,"WAWA [Diesel]-Vero Beach,FL","1180 US Hwy 1, Vero Beach,FL 32960|(772) 323-8736|24 hrs|5201"
-80.512977,27.6394497,"WAWA [Diesel]-Vero Beach,FL","9050 20th St, Vero Beach,FL 32966|(772) 453-4096|24 hrs|5202"
-82.355465,28.184965,"WAWA [Diesel]-Wesley Chapel,FL","27866 SR 56, Wesley Chapel,FL 33543|(813) 494-2329|24 hrs|5226"
-82.3536088,28.2367967,"WAWA [Diesel]-Wesley Chapel,FL","28225 SR 54, Wesley Chapel,FL 33544|(813) 395-0087|24 hrs|5240"
-80.67367,28.07852,"WAWA [Diesel]-West Melbourne,FL","3175 W New Haven Ave, West Melbourne,FL 32904|(321) 952-4923|24 hrs|5192"
-80.646,28.03606,"WAWA [Diesel]-West Melbourne,FL","895 Palm Bay Rd, West Melbourne,FL 32904|(321) 574-8807|24 hrs|5318"
-80.074118,26.690238,"WAWA [Diesel]-West Palm Beach,FL","1530 Belvedere Rd, West Palm Beach,FL 33405|(561) 420-4758|24 hrs|5211"
-80.119004,26.706633,"WAWA [Diesel]-West Palm Beach,FL","4950 Okeechobee Blvd, West Palm Beach,FL 33417|(561) 467-6322|24 hrs|5302"
-82.333158,27.711592,"WAWA [Diesel]-Wimauma,FL","16620 S US 301, Wimauma,FL 33598|(813) 494-2579|24 hrs|5198"
-81.583898,28.55147,"WAWA [Diesel]-Winter Garden,FL","13501 W Colonial Dr, Winter Garden,FL 34787|(407) 301-7017|24 hrs|5210"
-81.646994,28.3478,"WAWA [Diesel]-Winter Garden,FL","8849 W Irlo Bronson Memorial Hwy, Winter Garden,FL 34787|(407) 477-1050|24 hrs|5119"
-81.73009,28.00805,"WAWA [Diesel]-Winter Haven,FL","1490 3rd St SW, Winter Haven,FL 33880|(863) 294-7134|24 hrs|5126"
-81.2798956,28.6115062,"WAWA [Diesel]-Winter Park,FL","4256 Aloma Ave, Winter Park,FL 32792|(407) 501-6566|24 hrs|5280"
-81.365588,28.605056,"WAWA [Diesel]-Winter Park,FL","901 N Orlando Ave, Winter Park,FL 32789|(407) 629-0167|24 hrs|5135"
-82.1881517,28.2505642,"WAWA [Diesel]-Zephyrhills,FL","6450 Gall Blvd, Zephyrhills,FL 33542|(813) 393-1807|24 hrs|5285"
-76.1605382,39.5131115,"WAWA [Diesel]-Aberdeen,MD","231 N Philadelphia Blvd, Aberdeen,MD 21001|(410) 273-7102|24 hrs|567"
-76.310974,39.465042,"WAWA [Diesel]-Abingdon,MD","3500 Woodsdale Rd, Abingdon,MD 21009-2006|(410) 569-6347|24 hrs|581"
-76.45634,39.02701,"WAWA [Diesel]-Annapolis,MD","327 Buschs Frontage Road, Annapolis,MD 21401 |(410) 757-2328|24 hrs|569"
-76.532514,38.994891,"WAWA [no fuel]-Annapolis,MD","628 Admiral Dr, Annapolis,MD 21401-2151|(410) 974-6436|24 hrs|549"
-76.759073,39.333183,"WAWA [Diesel]-Baltimore,MD","2845 Rolling Rd, Baltimore,MD 21244|(410) 448-2019|24 hrs|598"
-76.673244,39.2464403,"WAWA [Diesel]-Baltimore,MD","3716 Washington Blvd, Baltimore,MD 21227|(410) 247-2620|24 hrs|8504"
-76.55387,39.2771,"WAWA [Diesel]-Baltimore,MD","4901 Boston St, Baltimore,MD 21224|(410) 376-7716|24 Hrs|8511"
-76.535408,39.287352,"WAWA [Diesel]-Baltimore,MD","6541 Eastern Ave, Baltimore,MD 21224|(410) 631-7813|24 hrs|8502"
-76.314656,39.546103,"WAWA [Diesel]-Bel Air,MD","1505 E Churchville Rd, Bel Air,MD 21014|(410) 838-8539|24 hrs|557"
-76.353244,39.568537,"WAWA [Diesel]-Bel Air,MD","601 Hoagie Dr, Bel Air,MD 21014|(410) 638-7457|24 hrs|586"
-76.357674,39.522241,"WAWA [Diesel]-Bel Air,MD","709 Bel Air Rd, Bel Air,MD 21014-4209|(410) 638-5049|24 hrs|553"
-76.917076,39.027327,"WAWA [Diesel]-Beltsville,MD","10515 Baltimore Ave, Beltsville,MD 20705|(301) 595-2013|24 hrs|"
-76.875853,38.664515,"WAWA [Diesel]-Brandywine,MD","16410 Mckendree Rd, Brandywine,MD 20613-8063|(301) 782-7432|24 hrs|580"
-76.519245,38.302867,"WAWA [Diesel]-California,MD","23141 Three Notch Rd, California,MD 20619|(301) 866-6080|24 hrs|592"
-76.066119,38.561059,"WAWA [Diesel]-Cambridge,MD","601 Sunburst Hwy, Cambridge,MD 21613|(410) 901-9794|24 hrs|563"
-76.85071,38.87005,"WAWA [Diesel]-Capitol Heights,MD","1401 Hampton Park Blvd, Capitol Heights,MD 20743|(301) 336-1704|24 hrs|"
-76.773827,38.501464,"WAWA [Diesel]-Charlotte Hall,MD","30320 Three Notch Rd, Charlotte Hall,MD 20622-3189|(301) 290-5971|24 hrs|588"
-76.636363,39.466146,"WAWA [Diesel]-Cockeysville,MD","10111 York Rd, Cockeysville,MD 21030-3305|(410) 628-1050|24 hrs|8506"
-76.4701837,39.2685803,"WAWA [Diesel]-Dundalk,MD","4017 North Point Blvd, Dundalk,MD 21222-3619|(410) 388-1890|24 hrs|578"
-76.661084,38.717562,"WAWA [Diesel]-Dunkirk,MD","10205 Kirksville Lane, Dunkirk,MD 20754|(410) 286-7235|24 hrs|573"
-76.061186,38.771783,"WAWA [Diesel]-Easton,MD","8118 Ocean Gateway, Easton,MD 21601|(410) 819-3830|24 hrs|589"
-76.5678245,38.9358473,"WAWA [Diesel]-Edgewater,MD","3166 Solomons Island Rd, Edgewater,MD 21037 |(410) 956-7003|24 hrs|577"
-75.791648,39.652343,"WAWA [Diesel]-Elkton,MD","1657 Elkton Road, Elkton,MD 21921-4129 |(410) 996-8621|24 hrs|547"
-75.840961,39.603748,"WAWA [Diesel]-Elkton,MD","302 W Pulaski Highway, Elkton,MD 21921-5279 |(443) 485-8455|24 hrs|8512"
-76.48175,39.335986,"WAWA [Diesel]-Essex,MD","8731 Pulaski Hwy, Essex,MD 21221|(410) 780-9970|24 hrs|558"
-76.383616,39.503168,"WAWA [Diesel]-Fallston,MD","204 Connolly Rd, Fallston,MD 21047-2526|(410) 638-6742|24 hrs|8500"
-77.438822,39.416732,"WAWA [Diesel]-Frederick,MD","1001 W Patrick St, Frederick,MD 21702-3903 |(301) 300-9524|24 hrs|8513"
-77.401327,39.381388,"WAWA [Diesel]-Frederick,MD","5440 Urbana Pike, Frederick,MD 21703-7332 |(301) 694-4618|24 hrs|8505"
-77.438227,39.392199,"WAWA [Diesel]-Frederick,MD","5833 Ballanger Creek Pike, Frederick,MD 21703 |(301) 668-1502|24 hrs|554"
-76.656668,39.05658,"WAWA [Diesel]-Gambrills,MD","701 Annapolis Rd, Gambrills,MD 21054-1309 |(410) 923-5240|24 hrs|595"
-76.6153073,39.1801058,"WAWA [Diesel]-Glen Burnie,MD","7124 Ritchie Hwy, Glen Burnie,MD 21061-2904|(410) 553-0129|24 hrs|8503"
-76.649106,39.141621,"WAWA [Diesel]-Glen Burnie,MD","7800 Parke West Dr, Glen Burnie,MD 21061-4701|(410) 424-2493|24 hrs|8507"
-76.193472,38.965602,"WAWA [Diesel]-Grasonville,MD","101 Hissey Road, Grasonville,MD 21638|(443) 390-2460|24 hrs|8518"
-76.745522,39.152499,"WAWA [Diesel]-Hanover,MD","7710 Milestone Pkwy, Hanover,MD 21076|(410) 709-1039|24 hrs|8525"
-76.345564,39.439938,"WAWA [Diesel]-Joppa,MD","1419 S Mountain Rd, Joppa,MD 21085-3236|(410) 538-3131|24 hrs|599"
-76.827602,38.956099,"WAWA [Diesel]-Lanham,MD","10620 Martin Luther King Jr Hwy, Lanham,MD 20706|(667) 770-7088|24 Hrs|8523"
-76.841149,39.095719,"WAWA [Diesel]-Laurel,MD","9600 Fort Meade Rd, Laurel,MD 20707|(240) 594-0226|24 hrs|8515"
-76.476755,38.286928,"WAWA [Diesel]-Lexington Park,MD","22530 Three Notch Rd, Lexington Park,MD 20653|(240) 725-0531|24 hrs|587"
-76.715881,38.42676,"WAWA [Diesel]-Mechanicsville,MD","27605 Three Notch Rd, Mechanicsville,MD 20659|(301) 818-0450|24 hrs|583"
-76.631467,39.11066,"WAWA [Diesel]-Millersville,MD","8300 Veterans Hwy, Millersville,MD 21108-1409|(410) 729-9991|24 hrs|572"
-75.930463,39.612935,"WAWA [Diesel]-North East,MD","2031 Pulaski Highway, North East,MD 21901-3740|(410) 287-3432|24 hrs|585"
-76.457049,39.417971,"WAWA [Diesel]-Perry Hall,MD","9809 Belair Rd, Perry Hall,MD 21128|(410) 921-3819|24 hrs|8522"
-76.826187,39.456186,"WAWA [Diesel]-Reisterstown,MD","516 Main St, Reisterstown,MD 21136|(410) 833-0201|24 hrs|8501"
-75.565815,38.420518,"WAWA [Diesel]-Salisbury,MD","2740 North Salisbury Blvd, Salisbury,MD 21801|(410) 548-7946|24 hrs|561"
-75.600582,38.358147,"WAWA [Diesel]-Salisbury,MD","668 S Salisbury Blvd, Salisbury,MD 21801|(410) 677-0384|24 hrs|555"
-76.268302,39.636951,"WAWA [Diesel]-Street,MD","3530 Conowingo Road, Street,MD 21154-1944 |(410) 457-3411|24 hrs|559"
-76.904004,38.806801,"WAWA [Diesel]-Suitland,MD","6101 Allentown Rd, Suitland,MD 20746|(240) 673-3133|24 hrs|8514"
-76.9488532,39.4036419,"WAWA [Diesel]-Sykesville,MD","1310 Liberty Rd, Sykesville,MD 21784|(443) 885-0046|24 hrs|8529"
-76.575292,39.39641,"WAWA [Diesel]-Towson,MD","1260 E Joppa Rd, Towson,MD 21284|(443) 390-2616|24 hrs|8510"
-76.720093,38.889027,"WAWA [Diesel]-Upper Marlboro,MD","163 Southeast Crain Hwy, Upper Marlboro,MD 20774-8804|(301) 218-3154||562"
-76.918598,38.629453,"WAWA [Diesel]-Waldorf,MD","11505 Berry Rd, Waldorf,MD 20603|(301) 363-7010|24 hrs|565"
-76.93707,38.595175,"WAWA [Diesel]-White Plains,MD","4210 Crain Hwy [@ Billigsley], White Plains,MD 20695|(301) 645-0831|24 hrs|568"
-76.598791,38.557206,"WAWA [Diesel]-Prince Frederick,MD ","305 Market Square Dr, Prince Frederick,MD 20678|(410) 414-7247|24 hrs|591"
-74.509142,39.432328,"WAWA [no fuel]-Absecon,NJ","611 New Jersey Avenue, Absecon,NJ 08201|(609) 646-8156|24 hrs|736"
-74.52785,39.44658,"WAWA [Diesel]-Absecon,NJ","719 Fifth Ave, Absecon,NJ 08205|(609) 652-6423|24 hrs|968"
-74.457553,39.492267,"WAWA [no fuel]-Absecon,NJ","8 South New York Road, Absecon,NJ 08205|(609) 652-4036|24 hrs|482"
-75.06542,39.89048,"WAWA [no fuel]-Audubon,NJ","320 S White Horse Pike, Audubon,NJ 08106|(856) 547-9292|6 am-11 pm|730"
-74.723256,39.098444,"WAWA [no fuel]-Avalon,NJ","2701 Ocean Drive, Avalon,NJ 08202|(609) 967-3326|6 am-11 pm|432"
-74.28724,40.57685,"WAWA [Diesel]-Avenel,NJ","930 US Hwy 1 North, Avenel,NJ 07001|(732) 750-0532|24 hrs|8323"
-74.213153,39.767468,"WAWA [no fuel]-Barnegat,NJ","550 N Main Street, Barnegat,NJ 08005|(609) 698-1812|24 hrs|441"
-74.253922,39.75918,"WAWA [Diesel]-Barnegat,NJ","945 West Bay Ave, Barnegat,NJ 08005|(609) 607-3362|24 hrs|8309"
-75.045269,39.871817,"WAWA [Diesel]-Barrington,NJ","280 White Horse Pike, Barrington,NJ 08007|(856) 546-4936|24 hrs|8340"
-74.169015,39.923725,"WAWA [Diesel]-Bayville,NJ","220 US Rt 9, Bayville,NJ 08721|(732) 237-3050|24 hrs|931"
-74.22414,39.58526,"WAWA [no fuel]-Beach Haven,NJ","13115 Long Beach Blvd, Beach Haven,NJ 08008|(609) 492-1960|6 am-11 pm|977"
-74.173241,40.788982,"WAWA [Diesel]-Belleville,NJ","11 South Franklin Ave, Belleville,NJ 07109|(862) 300-5508|24 Hrs|8441"
-75.09965,39.86481,"WAWA [Diesel]-Bellmawr,NJ","112 Edgewood Drive, Bellmawr,NJ 08031|(856) 931-6906|24 hrs|396"
-75.110924,39.877012,"WAWA [no fuel]-Bellmawr,NJ","1155 West Browning Road, Bellmawr,NJ 08031|(856) 933-2055|24 hrs|317"
-74.95115,39.80283,"WAWA [Diesel]-Berlin,NJ","201 W White Horse Pike, Berlin,NJ 08009|(856) 768-5117|24 hrs|8310"
-74.92216,39.79437,"WAWA [no fuel]-Berlin,NJ","400 South Route 73, Berlin,NJ 08009|(856) 753-9003|24 hrs|391"
-75.039672,39.795893,"WAWA [Diesel]-Blackwood,NJ","1301 Little Gloucester Road , Blackwood,NJ 08012 |(856) 227-4159|24 hrs|967"
-75.062195,39.833072,"WAWA [no fuel]-Blackwood,NJ","2 Somersdale Rd, Blackwood,NJ 08012|(856) 232-4727|24 hrs|392"
-75.0602798,39.7950592,"WAWA [Diesel]-Blackwood,NJ","800 Blackwood Pike, Blackwood,NJ 08012|(856) 374-4080|24 hrs|998"
-74.7066,40.12762,"WAWA [no fuel]-Bordentown,NJ","1076 Rt 206, Bordentown,NJ 08505|(609) 291-2081|24 hrs|919"
-74.7040367,40.140425,"WAWA [Diesel]-Bordentown,NJ","237 Rt 130, Bordentown,NJ 08505|(609) 888-6067|24 hrs|8345"
-74.14495,40.02972,"WAWA [Diesel]-Brick,NJ","116 Brick Blvd, Brick,NJ 08723-7125|(732) 864-1704|24 hrs|997"
-74.120342,40.071356,"WAWA [Diesel]-Brick,NJ","1902 Rt 88, Brick,NJ 08724|(848) 209-1559|12am-12am|8372"
-74.108065,40.038107,"WAWA [no fuel]-Brick,NJ","383 Drum Point Rd, Brick,NJ 08723|(732) 477-5938|24 hrs|733"
-74.151376,40.056617,"WAWA [Diesel]-Brick,NJ","535 Rt 70, Brick,NJ 08723|(732) 994-6552|12am - 12pm|8383"
-74.13923,40.05381,"WAWA [no fuel]-Brick,NJ","595 Brick Blvd, Brick,NJ 08723|(732) 451-0259|24 hrs|923"
-74.144739,40.097447,"WAWA [no fuel]-Brick,NJ","6 Lanes Mill Road, Brick,NJ 08724|(732) 458-6721|24 hrs|401"
-75.207611,39.46229,"WAWA [Diesel]-Bridgeton,NJ","1090 State Hwy 77, Bridgeton,NJ 08302|(856) 459-3104|24 hrs|966"
-74.563401,40.567862,"WAWA [Diesel]-Bridgewater,NJ","580 Union Ave, Bridgewater,NJ 08807|(732) 648-5551|24 hrs|8341"
-74.39702,39.39427,"WAWA [no fuel]-Brigantine,NJ","3932 Brigantine Boulevard, Brigantine,NJ 08203|(609) 266-2680|24 hrs|713"
-74.36901,39.40427,"WAWA [no fuel]-Brigantine,NJ","813 West Brigantine Blvd, Brigantine,NJ 08203|(609) 266-5518|24 hrs|485"
-75.230568,39.42665,"WAWA [Diesel]-Brigeton,NJ","101 E Broad St, Bridgeton,NJ 08302|(856) 955-1606|24 Hrs|8442"
-75.1149755,39.8777822,"WAWA [Diesel]-Brooklawn,NJ","690 Crescent Blvd, Brooklawn,NJ 08030|(856) 409-0430|24 hrs|8424"
-74.583053,39.969338,"WAWA [no fuel]-Browns Mills,NJ","7 Julistown Road, Browns Mills,NJ 08015|(609) 893-5808|24 hrs|745"
-74.925628,39.514967,"WAWA [Diesel]-Buena,NJ","731 Harding Highway, Buena,NJ 08310|(856) 697-8484|24 hrs|380"
-74.871749,40.050378,"WAWA [Diesel]-Burlington,NJ","1814 Salem Road, Burlington,NJ 08016|(609) 386-5499|24 hrs|382"
-74.840764,40.052166,"WAWA [Diesel]-Burlington,NJ","2003 Mount Holly Rd, Burlington,NJ 08016|(609) 386-2501|24 hrs|943"
-74.87809,40.063135,"WAWA-Burlington,NJ","2060 Rt 130, Burlington,NJ 08016|(609) 499-4093|24 hrs|921"
-74.85013,40.07294,"WAWA [Diesel]-Burlington,NJ","350 E Rt 130 S, Burlington,NJ 08016|(609) 747-7721|4 am-12 am|8314"
-74.3569912,41.0030702,"WAWA [Diesel]-Butler,NJ","1512 Rt 23, Butler,NJ 07405|(862) 339-0887|24 Hrs|8457"
-74.909157,38.946766,"WAWA [no fuel]-Cape May,NJ","1426-1428 Texas Ave, Cape May,NJ 08204|(609) 884-6753|24 hrs|452"
-74.941617,38.983019,"WAWA [Diesel]-Cape May,NJ","3719 Bayshore Rd, Cape May,NJ 08204-3553|(609) 886-0004|24 hrs|980"
-74.825531,39.078031,"WAWA [no fuel]-Cape May Court House,NJ","224 South Main Street, Cape May Court House,NJ 08210|(609) 465-1461|24 hrs|492"
-74.976069,39.861465,"WAWA [no fuel]-Cherry Hill,NJ","100 Springdale Road, Cherry Hill,NJ 08003|(856) 429-5571|24 hrs|374"
-74.997205,39.911867,"WAWA [no fuel]-Cherry Hill,NJ","1110 Route 70 East, Cherry Hill,NJ 08034|(856) 429-0127|24 hrs|732"
-74.9636122,39.9018928,"WAWA [Diesel]-Cherry Hill,NJ","1824 Marlton Pike East , Cherry Hill,NJ 08003-2014 |(856) 988-6412|24 hrs|8311"
-75.008722,39.94134,"WAWA [Diesel]-Cherry Hill,NJ","2428 Route 38, Cherry Hill,NJ 08002 |(856) 258-0681|24 hrs|8402"
-75.028027,39.949382,"WAWA [Diesel]-Cherry Hill,NJ","50 Haddonfield Rd, Cherry Hill,NJ 08002|(856) 662-2110|24 hrs|8325"
-75.046553,39.938512,"WAWA [Diesel]-Cherry Hill,NJ","500 New Jersey Hwy 38, Cherry Hill,NJ 08002|(856) 661-0140|24 hrs|8336"
-75.032369,39.925374,"WAWA [Diesel]-Cherry Hill,NJ","904 Haddonfield Rd, Cherry Hill,NJ 08002|(856) 874-8303|24 hrs|8347"
-74.97349,40.00804,"WAWA [Diesel]-Cinnaminson,NJ","1911 Taylor Lane, Cinnaminson,NJ 08077|(856) 338-8222|24 hrs|8361"
-75.008279,39.986882,"WAWA [Diesel]-Cinnaminson,NJ","2112 Church Rd, Cinnaminson,NJ 08077|(856) 786-2131|24 hrs|8428"
-74.4296,40.157235,"WAWA [Diesel]-Clarksburg,NJ","548 Monmouth Rd, Clarksburg,NJ 08510|(609) 259-9878|24 hrs|909"
-75.056396,39.913055,"WAWA [no fuel]-Collingswood,NJ","1 Haddon Avenue, Collingswood,NJ 08108|(856) 282-2334|24 hrs|468"
-75.070129,39.916276,"WAWA [no fuel]-Collingswood,NJ","668 Haddon Avenue, Collingswood,NJ 08108|(856) 858-4455|6 am-12 am|352"
-74.728475,40.040069,"WAWA [no fuel]-Columbus,NJ","2835 Route 206, Columbus,NJ 08022|(609) 265-8382|24 hrs|387"
-74.284216,40.658567,"WAWA [Diesel]-Cranford,NJ","500 North Avenue E, Cranford,NJ 07016|(908) 952-0554|24 hrs|8379"
-74.511181,40.375179,"WAWA [no fuel]-Dayton,NJ","350 Georges Road, Dayton,NJ 08810|(732) 274-0490|24 hrs|476"
-74.952198,40.016177,"WAWA [Diesel]-Delran,NJ","5010 Rt 130 North, Delran,NJ 08075|(856) 461-7001|24 hrs|8304"
-74.821072,39.190309,"WAWA [no fuel]-Dennisville,NJ","1180 Rt 47 , Dennisville,NJ 08214|(609) 861-7147|24 hrs|470"
-75.1085,39.829778,"WAWA [Diesel]-Deptford,NJ","1465 Clements Bridge Rd, Deptford,NJ 08045|(856) 955-1466|24 Hrs|8351"
-75.094954,39.80633,"WAWA [no fuel]-Deptford,NJ","1536 Hurffville Road, Deptford,NJ 08096|(856) 228-7838|24 hrs|436"
-74.9681915,39.2895492,"WAWA [Diesel]-Dorchester,NJ","3904 Route 47, Dorchester,NJ 08316|(856) 785-0706|24 hrs|759"
-74.422207,40.4359,"WAWA [no fuel]-East Brunswick,NJ","426 Ryders Land, East Brunswick,NJ 08816|(732) 432-7780|24 hrs|914"
-74.052726,40.294327,"WAWA [Diesel]-Eatontown,NJ","151a Hwy 35, Eatontown,NJ 07724|848) 668-4155|12am - 12 am|8368"
-74.047153,40.279204,"WAWA [Diesel]-Eatontown,NJ","308 Highway 35, Eatontown,NJ 07724|(732) 230-1522|24 hrs|8450"
-74.922925,40.035621,"WAWA [Diesel]-Edgewater Park,NJ","4167 S Rt 130, Edgewater Park,NJ 08010|(609) 835-5600|24 hrs|959"
-74.362971,40.512163,"WAWA [Diesel]-Edison,NJ","2720 Woodbridge Ave, Edison,NJ 08837|(732) 670-2673|24 hrs|8365"
-74.393272,40.506699,"WAWA [Diesel]-Edison,NJ","580 Rt 1, Edison,NJ 08817|(848) 290-1151|24 Hours|8406"
-74.6475227,39.52835,"WAWA [Diesel]-Egg Harbor City,NJ","600 White Horse Pike, Egg Harbor City,NJ 08215|(609) 454-8144|24 Hrs|8467"
-74.6458511,39.5275197,"WAWA [Diesel]-Egg Harbor City,NJ","716 White Horse Pike, Egg Harbor City,NJ 08215|(609) 965-4045|24 hrs|936"
-74.643774,39.526553,"WAWA [no fuel]-Egg Harbor City,NJ","907 White Horse Pike, Egg Harbor City,NJ 08215|(609) 965-3490|24 hrs|473"
-74.578222,39.433854,"WAWA [Diesel]-Egg Harbor Township,NJ","2422-28 Tilton Rd, Egg Harbor Township,NJ 08234|(609) 641-2069|24 hrs|920"
-74.637481,39.39048,"WAWA [Diesel]-Egg Harbor Township,NJ","5100 English Creek Rd, Egg Harbor Township,NJ 08234|(609) 653-1351|24 hrs|969"
-74.568399,39.410982,"WAWA [Diesel]-Egg Harbor Township,NJ","6678 Black Horse Pike, Egg Harbor Township,NJ 08234|(609) 645-2639|24 hrs|947"
-74.555745,39.398473,"WAWA [Diesel]-Egg Harbor Township,NJ","6743 Black Horse Pike, Egg Harbor Township,NJ 08234|(609) 646-5013|24 hrs|8333"
-74.199628,40.672945,"WAWA [Diesel]-Elizabeth,NJ","595 Spring St, Elizabeth,NJ 07201|(908) 289-2402|24 hrs|8320"
-75.22893,39.61627,"WAWA [no fuel]-Elmer,NJ","759 Route 40, Elmer,NJ 08318|(856) 358-0680|24 hrs|446"
-74.801106,40.26164,"WAWA [Diesel]-Ewing,NJ","1300 Sylvia St, Ewing,NJ 08618|(609) 583-4874|24 hrs|8360"
-74.27538,40.88723,"WAWA [Diesel]-Fairfield,NJ","28 Little Falls Rd, Fairfield,NJ 07004|(862) 702-9877|24 hrs|8349"
-74.1472533,40.2264523,"WAWA [Diesel]-Farmingdale,NJ","1310 Hwy 34, Farmingdale,NJ 07727|(732) 938-6870|24 hrs|929"
-74.20087,39.8292,"WAWA [Diesel]-Forked River,NJ","444 South Main St, Forked River,NJ 08731|(609) 693-5119|24 hrs|958"
-74.206576,39.860557,"WAWA [Diesel]-Forked River,NJ","800 Lacey Rd, Forked River,NJ 08731|(609) 693-8060|24 hrs|988"
-75.0660134,39.5995492,"WAWA [no fuel]-Franklin,NJ","2585 Delsea Drive, Franklin,NJ 08322|(856) 694-1149|24 hrs|444"
-74.2675924,40.2219551,"WAWA [Diesel]-Freehold,NJ","3303 Rt 9, Freehold,NJ 07728|(848) 299-4733|24 Hrs|8473"
-74.24222,40.2203,"WAWA [Diesel]-Freehold,NJ","909 Howell Rd, Freehold,NJ 07728|(732) 866-0096|24 hrs|910"
-74.575079,39.479237,"WAWA [Diesel]-Galloway,NJ","275 W White Horse Pike, Galloway,NJ 08205|(609) 593-3765|24 hrs|8343"
-74.493476,39.462471,"WAWA [Diesel]-Galloway,NJ","336 South Pitney Road, Galloway,NJ 08205|(609) 246-5423|24 hrs|438"
-74.118976,40.881223,"WAWA [Diesel]-Garfield,NJ","7 Jewell St, Garfield,NJ 07026|(973) 786-3714|24 hrs|8335"
-74.962684,39.841344,"WAWA [Diesel]-Gibbsboro,NJ","3 Lakeview Dr North, Gibbsboro,NJ 08026|(856) 955-5568|24 Hrs|8453"
-74.957988,39.83733,"WAWA [no fuel]-Gibbsboro,NJ","71 South Lakeview Drive, Gibbsboro,NJ 08026|(856) 783-9812|24 hrs|494"
-75.1130903,39.7165254,"WAWA [Diesel]-Glassboro,NJ","629 N Delsea Drive, Glassboro,NJ 08028|(856) 881-7098|24 hrs|8327"
-75.111152,39.887744,"WAWA [no fuel]-Gloucester City,NJ","1317 Market Street, Gloucester City,NJ 08030|(856) 456-8566|24 hrs|778"
-74.036523,40.862705,"WAWA [Diesel]-Hackensack,NJ","505 S River St, Hackensack,NJ 07601|(201) 488-1214|24 hrs|8338"
-74.847131,39.973608,"WAWA [no fuel]-Hainesport,NJ","1301 Route 38, Hainesport,NJ 08036|(609) 261-9384|24 hrs|347"
-74.664845,40.228627,"WAWA [Diesel]-Hamilton,NJ","1200 State Highway 33, Hamilton,NJ 08690|(856) 982-3241|24 hrs|8357"
-74.709499,40.233383,"WAWA [no fuel]-Hamilton,NJ","2004 Nottingham Way, Hamilton,NJ 08619|(609) 586-6616|24 hrs|349"
-74.80548,39.6337,"WAWA [no fuel]-Hammonton,NJ","100 12th St, Hammonton,NJ 08037|(609) 567-7735|24 hrs|383"
-74.789708,39.647892,"WAWA [Diesel]-Hammonton,NJ","2 North White Horse Pike, Hammonton,NJ 08037|(609) 630-4050|24 hrs|8431"
-74.796425,39.652138,"WAWA [no fuel]-Hammonton,NJ","214 North White Horse Pike, Hammonton,NJ 08037|(609) 567-4024|24 hrs|495"
-74.18268,40.43342,"WAWA [no fuel]-Hazlet,NJ","1181 Rt 36, Hazlet,NJ 07730|(732) 888-0034|24 hrs|911"
-74.191039,40.429007,"WAWA [Diesel]-Hazlet,NJ","1413 Highway 36, Hazlet,NJ 07730|(732) 523-5509|3am-2am|8417"
-74.549427,40.260905,"WAWA [no fuel]-Hightstown,NJ","104 Hickory Corner Road, Hightstown,NJ 08520|(609) 448-9552|24 hrs|735"
-74.633305,40.518685,"WAWA [no fuel]-Hillsborough,NJ","381 Triangle Road, Hillsborough,NJ 08844|(908) 874-3094|24 hrs|439"
-74.144242,40.119926,"WAWA [no fuel]-Howell,NJ","157 Newtons Corner Rd, Howell,NJ 07731|(732) 840-1890|24 hrs|343"
-74.2424245,40.1782575,"WAWA [no fuel]-Howell,NJ","2485 Rt 9 North, Howell,NJ 07731|(732) 364-3771|24 hrs|955"
-74.22604,40.13682,"WAWA [Diesel]-Howell,NJ","4690 US Hwy 9, Howell,NJ 07731|(732) 364-0938|24 hrs|938"
-74.28541,40.12359,"WAWA [no fuel]-Jackson,NJ","10 Manhattan Avenue, Jackson,NJ 08527|(732) 928-4333|24 hrs|348"
-74.26683,40.083515,"WAWA [Diesel]-Jackson,NJ","1120 E Veterans Hwy, Jackson,NJ 08527|(732) 364-7323|24 hrs|933"
-74.298447,40.138218,"WAWA [Diesel]-Jackson,NJ","329 North County Line Rd, Jackson,NJ 08527|(732) 833-0694|24 hrs|8328"
-74.34195,40.111789,"WAWA [no fuel]-Jackson,NJ","9 Bennetts Mills Road, Jackson,NJ 08527|(732) 928-3457|24 hrs|309"
-74.45526,40.37858,"WAWA [Diesel]-Jamesburg,NJ","885 Cranbury South River Rd, Jamesburg,NJ 08831|(732) 521-2915|24 hrs|986"
-74.136086,40.749056,"WAWA [Diesel]-Kearny,NJ","200 Harrison Ave, Kearny,NJ 07032|(201) 991-4091|24 hrs|8318"
-74.5475055,40.4326083,"WAWA [Diesel]-Kendall Park,NJ","3222 Rt 27, Kendall Park,NJ 08824|(908) 679-9779|24 hrs|8366"
-74.22515,40.44028,"WAWA [Diesel]-Keyport,NJ","204 Hwy 35, Keyport,NJ 07735|(732) 888-5090|24 hrs|976"
-74.598027,40.96171,"WAWA [Diesel]-Lake Hopatcong,NJ","767 SR 15 South, Lake Hopatcong,NJ 07849|(862) 842-9166|24 hrs|8429"
-74.21124,40.04911,"WAWA [Diesel]-Lakewood,NJ","135 Route 70, Lakewood,NJ 08701-5820|(732) 942-3914|24 hrs|8319"
-74.204059,40.105462,"WAWA [no fuel]-Lakewood,NJ","605 East County Line Road, Lakewood,NJ 08701|(732) 364-4452|24 hrs|743"
-74.172431,39.862449,"WAWA [Diesel]-Lanoka Harbor,NJ","701 North Main Street, Lanoka Harbor,NJ 08734|(609) 693-0357|24 hrs|794"
-74.0637,39.99446,"WAWA [no fuel]-Lavallette,NJ","3485 Route 35 North, Lavallette,NJ 08735-3231|(732) 830-2760|24 hrs|949"
-74.706827,40.273642,"WAWA [Diesel]-Lawrence Township,NJ","2936 Brunswick Pike, Lawrence Township,NJ 08648|(609) 771-6756|5 am- 12 am|8339"
-74.066594,40.415448,"WAWA [Diesel]-Leonardo,NJ","75 Appleton Ave, Leonardo,NJ 07737|(732) 291-2813|24 hrs|8306"
-74.98982,39.81537,"WAWA [Diesel]-Lindenwold,NJ","421 White Horse Pike, Lindenwold,NJ 08021|(856) 435-4083|24 hrs|973"
-75.017885,39.812398,"WAWA [Diesel]-Lindenwold,NJ","635 Chews Landing Road, Lindenwold,NJ 08021|(856) 441-4097|24 hrs|8382"
-74.369371,39.581249,"WAWA [Diesel]-Little Egg Harbor,NJ","195 Mathistown Rd, Little Egg Harbor,NJ 08087|(609) 296-0576|24 hrs|978"
-74.072975,40.891516,"WAWA [Diesel]-Lodi,NJ","150 Essex St, Lodi,NJ 07644|(201) 843-2941|24 hrs|8326"
-74.806437,39.98165,"WAWA [Diesel]-Lumberton,NJ","1522 Rt 38, Lumberton,NJ 08048|(609) 267-3474|24 hrs|957"
-75.032366,39.854735,"WAWA [no fuel]-Magnolia,NJ","101 S Warwick Rd, Magnolia,NJ 08049|(856) 435-2550|24 hrs|355"
-75.052635,39.572028,"WAWA [Diesel]-Malaga,NJ","450 Delsea Drive, Malaga,NJ 08328|(856) 694-4490|24 hrs|486"
-74.290922,39.726974,"WAWA [no fuel]-Manahawkin,NJ","1400 Route 72, Manahawkin,NJ 08050|(609) 597-8278|24 hrs|744"
-74.25023,39.68797,"WAWA [Diesel]-Manahawkin,NJ","320 Rt 72 East, Manahawkin,NJ 08050|(609) 978-4153|24 hrs|994"
-74.253243,39.708056,"WAWA [Diesel]-Manahawkin,NJ","470 North Main St, Manahawkin,NJ 08050|(609) 978-4150|24 hrs|935"
-74.36744,40.25543,"WAWA [Diesel]-Manalapan,NJ","146 Woodward Ave, Manalapan,NJ 07726|(732) 446-9650|24 hrs|993"
-74.319082,40.33579,"WAWA [no fuel]-Manalapan,NJ","345 Union Hill Road, Manalapan,NJ 07726|(732) 536-9679|24 hrs|754"
-74.06867,40.12349,"WAWA [no fuel]-Manasquan,NJ","2432 Highway 35, Manasquan,NJ 08736-1102|(732) 528-9734|24 hrs|917"
-75.18307,39.78224,"WAWA [no fuel]-Mantua,NJ","400 Bridgeton Pike, Mantua,NJ 08051|(856) 468-2524|24 hrs|398"
-74.97026,39.9372,"WAWA [Diesel]-Maple Shade,NJ","2801 Rt 73 South, Maple Shade,NJ 08052|(856) 312-3305|24 hrs|8419"
-74.985988,39.949985,"WAWA [Diesel]-Maple Shade,NJ","2920 Route 73 N, Maple Shade,NJ 08052-2000|(856) 667-1346|24 hrs|8316"
-75.002781,39.957008,"WAWA [no fuel]-Maple Shade,NJ","55 North Fork Landing Road, Maple Shade,NJ 08052|(856) 779-2487|24 hrs|740"
-74.96879,39.94321,"WAWA [Diesel]-Maple Shade,NJ","600 Route 38 East , Maple Shade,NJ 08052 |(856) 638-1862|24 hrs|8337"
-74.252504,40.722832,"WAWA [Diesel]-Maplewood,NJ","1511 Springfield Ave, Maplewood,NJ 07040|(973) 885-0575|24 hrs|8350"
-74.513945,39.322048,"WAWA [no fuel]-Margate City,NJ","9300 Ventnor Ave, Margate City,NJ 08402|(609) 822-5167|24 hrs|950"
-74.3062244,40.3529314,"WAWA [no fuel]-Marlboro,NJ","3 County Road 520 [ste 1], Marlboro,NJ 07746-2258|(732) 972-4515|24 hrs|784"
-74.246745,40.332522,"WAWA [no fuel]-Marlboro,NJ","455 Country Rd 520 [ste 1], Marlboro,NJ 07746|(732) 972-4515|24 hrs|784"
-74.932626,39.894086,"WAWA [Diesel]-Marlton,NJ","250 W Route 70, Marlton,NJ 08053-1634|(856) 983-7402|24 hrs|8334"
-74.922709,39.914859,"WAWA [Diesel]-Marlton,NJ","270 E Green Tree Road, Marlton,NJ 08053|(856) 985-2925|24 hrs|369"
-74.92317,39.88508,"WAWA [no fuel]-Marlton,NJ","401 Brick Blvd & Rt 73, Marlton,NJ 08053-2073|(856) 596-8717|24 hrs|418"
-74.6494005,39.2633542,"WAWA [Diesel]-Marmora,NJ","30 S Shore Road, Marmora,NJ 08223|(609) 390-9510|24 hrs|758"
-74.2895734,40.4254343,"WAWA [Diesel]-Matawan,NJ","67 Hwy 34, Matawan,NJ 07747|(732) 335-5500|24 hrs|934"
-74.725704,39.454454,"WAWA [no fuel]-Mays Landing,NJ","300 N Route 50, Mays Landing,NJ 08330|(609) 625-8211|24 hrs|749"
-74.629718,39.444905,"WAWA [Diesel]-Mays Landing,NJ","4262 Black Horse Pike, Mays Landing,NJ 08330|(609) 484-2424|24 hrs|941"
-74.702352,39.446411,"WAWA [Diesel]-Mays Landing,NJ","5201 Harding Hwy, Mays Landing,NJ 08330|(609) 909-0418|24 hrs|925"
-74.82641,39.91534,"WAWA [no fuel]-Medford,NJ","199 Mt Holly Road, Medford,NJ 08055|(609) 654-1363|24 hrs|353"
-74.843897,39.869706,"WAWA [no fuel]-Medford,NJ","211 Tuckerton Road, Medford,NJ 08055|(609) 654-9475|24 hrs|748"
-74.804865,39.90423,"WAWA [Diesel]-Medford,NJ","257 Route 70, Medford,NJ 08055-9421|(609) 714-9016|24 hrs|915"
-75.041586,39.395066,"WAWA [no fuel]-Millville,NJ","13 W Main Street, Millville,NJ 08332|(856) 825-5379|24 hrs|710"
-75.017483,39.393588,"WAWA [Diesel]-Millville,NJ","1711 East Main Street, Millville,NJ 08332|(856) 327-0655|24 hrs|720"
-75.03741,39.42166,"WAWA [Diesel]-Millville,NJ","2105 North Second Street, Millville,NJ 08332|(856) 327-3661|24 hrs|964"
-75.055468,39.398052,"WAWA [Diesel]-Millville,NJ","624 West Main St, Millville,NJ 08332|(856) 327-7400|24 hrs|944"
-74.470462,40.322326,"WAWA [no fuel]-Monroe Township,NJ","337 Applegarth Road, Monroe Township,NJ 08831|(609) 395-9275|24 hrs|365"
-74.472672,40.258794,"WAWA [Diesel]-Monroe Township,NJ","960 Rt 33, Monroe Township,NJ 08831|(609) 371-8904|24 hrs|8330"
-74.951448,39.961441,"WAWA [no fuel]-Moorestown,NJ","236 West Main Street, Moorestown,NJ 08057|(856) 234-2694|24 hrs|725"
-75.0868033,39.8871233,"WAWA [Diesel]-Mount Ephraim,NJ","602 Black Horse Pike, Mount Ephraim,NJ 08059|(856) 456-3508|24 hrs|972"
-74.804629,40.011115,"WAWA [no fuel]-Mount Holly,NJ","798 Woodlane Rd, Mount Holly,NJ 08060|(609) 261-1665|24 hrs|366"
-74.953442,39.927471,"WAWA [Diesel]-Mount Laurel,NJ","1115 Rt 73 & Howard Blvd, Mount Laurel,NJ 08054-5115|(856) 234-3965|24 hrs|960"
-74.87083,39.95293,"WAWA [no fuel]-Mount Laurel,NJ","200 Larchmont Blvd, Mount Laurel,NJ 08054|(856) 231-8961|24 hrs|358"
-74.920038,39.966632,"WAWA [Diesel]-Mount Laurel,NJ","3605 Rt 38, Mount Laurel,NJ 08054|(856) 235-0463|24 hrs|8321"
-74.974216,39.929772,"WAWA [no fuel]-Mount Laurel,NJ","3763 Church Rd, Mount Laurel,NJ 08054|(856) 273-1132|24 hrs|344"
-74.939237,39.940754,"WAWA [no fuel]-Mount Laurel,NJ","720 South Church Road, Mount Laurel,NJ 08057|(856) 234-9624|24 hrs|718"
-75.236234,39.716945,"WAWA [Diesel]-Mullica Hill,NJ","631 Mullica Hill Rd, Mullica Hill,NJ 08062|(856) 256-7641|24 hrs|8308"
-74.026251,40.209043,"WAWA-Neptune,NJ","1344 Corlies Ave, Neptune,NJ 07753-5166|)732) 774-4064|24 hrs|8329"
-74.07738,40.22495,"WAWA [Diesel]-Neptune,NJ","3520 Rt 66, Neptune,NJ 07753-2603|(732) 922-9514|24 hrs|8303"
-74.77715,40.53257,"WAWA [no fuel]-Neshanic Station,NJ","800 Rt 202, Neshanic Station,NJ 08853|(908) 806-0553|24 hrs|916"
-74.535096,40.06753,"WAWA [no fuel]-New Egypt,NJ","1 Maple Avenue, New Egypt,NJ 08533|(609) 758-3668|24 hrs|798"
-74.480388,40.08282,"WAWA [Diesel]-New Egypt,NJ","633 Rt 539, New Egypt,NJ 08533|(609) 758-3061|24 hrs|539"
-74.019217,40.803391,"WAWA [Diesel]-North Bergen,NJ","7408 Tonnelle Ave, North Bergen,NJ 07047|(551) 309-2677|24 Hrs|8353"
-74.50728,40.46069,"WAWA [no fuel]-North Brunswick,NJ","1910 Rt 27, North Brunswick,NJ 08902, (732) 846-7334|24 hrs|912"
-74.469202,40.470479,"WAWA [Diesel]-North Brunswick Township,NJ","933 Livingston Ave, North Brunswick Township,NJ 08902|(908) 922-4677|24 Hrs|8435"
-74.44378,40.62417,"WAWA [Diesel]-North Plainfield,NJ","855 US 22 @ Wilson Ave, North Plainfield,NJ 07060|(908) 344-5535|24 hrs|8397"
-74.79649,39.01215,"WAWA [Diesel]-North Wildwood,NJ","330 W Spruce Ave, North Wildwood,NJ 08260-3058 |(609) 522-0910|24 hrs|8322"
-74.565256,39.362819,"WAWA [no fuel]-Northfield,NJ","2403 New Road, Northfield,NJ 08225|(609) 646-8695|24 hrs|701"
-75.076211,39.900665,"WAWA [no fuel]-Oaklyn,NJ","800 White Horse Pike, Oaklyn,NJ 08107|(856) 858-1543|24 hrs|477"
-74.613112,39.252268,"WAWA [no fuel]-Ocean City,NJ","110 34th Street, Ocean City,NJ 08226|(609) 398-6080|6 am-11 pm|771"
-74.5776677,39.2788552,"WAWA [no fuel]-Ocean City,NJ","124250 West Avenue, Ocean City,NJ 08226|(609) 398-7754|24 hrs|728"
-74.72625,39.16943,"WAWA [Diesel]-Ocean View,NJ","2500 Sea Isle Blvd [unit 1], Ocean View,NJ 08230|(609) 624-9379|24 hrs|465"
-74.33968,40.39064,"WAWA [Diesel]-Old Bridge,NJ","1453 Rt 18, Old Bridge,NJ 08857|(732) 360-3020|24 hrs|940"
-74.354628,40.355805,"WAWA [Diesel]-Old Bridge,NJ","1886 Englishtown Rd, Old Bridge,NJ 08857|(732) 521-3606|24 hrs|989"
-74.308071,40.37746,"WAWA [no fuel]-Old Bridge,NJ","3600 Rt 9 South, Old Bridge,NJ 08857|(732) 591-1032|24 hrs|8315"
-75.02112,40.003625,"WAWA [no fuel]-Palmyra,NJ","600 Cinnaminson Ave, Palmyra,NJ 08065|(856) 829-8368|24 hrs|460"
-74.681451,39.977839,"WAWA [Diesel]-Pemberton,NJ","3 Arneys Mount Rd, Pemberton,NJ 08068-1314|(609) 894-0063|24 hours|982"
-75.022851,39.987283,"WAWA [Diesel]-Pennsauken,NJ","1505 Rt 73 & Remington, Pennsauken,NJ 08110-1325|(856) 663-2251|24 Hrs|952"
-75.05054,39.96417,"WAWA [Diesel]-Pennsauken,NJ","2290 Clement Avenue, Pennsauken,NJ 08110 |(856) 665-0690|24 hours|990"
-75.0660501,39.9330387,"WAWA [Diesel]-Pennsauken,NJ","5221 Rt 70, Pennsauken,NJ 08109|(856) 663-0774|24 hours|965"
-75.083188,39.92898,"WAWA [Diesel]-Pennsauken,NJ","8000 S Crescent Blvd, Pennsauken,NJ 08109|(856) 955-1132|24 Hrs|8449"
-75.516358,39.64065,"WAWA [no fuel]-Pennsville,NJ","2 Carroll Avenue, Pennsville,NJ 08070|(856) 678-8012|24 hrs|750"
-75.494077,39.676714,"WAWA [Diesel]-Pennsville,NJ","418 N Broadway, Pennsville,NJ 08070|(856) 299-0341|24 hours|8332"
-75.1424286,40.6770395,"WAWA [Diesel]-Phillipsburg,NJ","1300 Route 22, Phillipsburg,NJ 08865|(908) 387-9511|24 hours|8313"
-75.175257,40.696392,"WAWA [Diesel]-Phillipsburg,NJ","411 Roseberry St, Phillipsburg,NJ 08865|(908) 454-3192|24 hours|985"
-74.991511,39.784546,"WAWA [no fuel]-Pine Hill,NJ","917 Erial Road, Pine Hill,NJ 08021|(856) 346-8780|24 hrs|362"
-74.42587,40.5459,"WAWA [Diesel]-Piscataway,NJ","555 New Durham Rd, Piscataway,NJ 08854|(908) 274-1954|24 hours|8386"
-75.1265,39.7493,"WAWA [Diesel]-Pitman,NJ","485 Woodbury Glassboro Road, Pitman,NJ 08071|(856) 258-0407|24 hours|8403"
-74.39299,40.634797,"WAWA [Diesel]-Plainfield,NJ","1470 South Ave, Plainfield,NJ 07062|(908) 941-0042|24 Hrs|8464"
-74.521517,39.408004,"WAWA [Diesel]-Pleasantville,NJ","513 West Delilah Rd, Pleasantville,NJ 08232|(609) 641-2428|24 hours|970"
-74.659026,40.341849,"WAWA [no fuel]-Princeton,NJ","152 Alexander St, Princeton,NJ 08540|(609) 924-2845|24 hrs|8331"
-74.291023,40.595678,"WAWA [Diesel]-Rahway,NJ","280 St George Ave, Rahway,NJ 07065|(732) 307-0927|24 hrs|8389"
-74.07589,40.351327,"WAWA [no fuel]-Red Bank,NJ","14 North Bridge Street, Red Bank,NJ 07701|(732) 747-3555|24 hrs|790"
-74.87637,39.01549,"WAWA [Diesel]-Rio Grande,NJ","3601 Route 9 South , Rio Grande,NJ 08242|(609) 889-3122|24 hrs|946"
-74.591445,40.233892,"WAWA [Diesel]-Robbinsville,NJ","1220 Rt 130, Robbinsville,NJ 08691|(609) 905-1161|24 Hrs|8399"
-74.2503182,40.6459173,"WAWA [Diesel]-Roselle,NJ","1187 St George Ave, Roselle,NJ 07203|(908) 941-0801|24 hrs|8392"
-75.076317,39.856286,"WAWA [Diesel]-Runnemede,NJ","825 N Black Horse Pike, Runnemede,NJ 08078|(856) 939-6579|24 hrs|932"
-74.36763,40.45506,"WAWA [no fuel]-Sayreville,NJ","42 Washington Road, Sayreville,NJ 08872|(732) 254-0215|24 hrs|781"
-74.6895,39.15727,"WAWA [no fuel]-Sea Isle City,NJ","3801 Landis Avenue, Sea Isle City,NJ 08243|(609) 263-2330|6 am-11 pm|300"
-75.076086,39.751419,"WAWA [no fuel]-Sewell,NJ","388 Egg Harbor Rd (@ Greentree, Sewell,NJ 08080-1858|(856) 589-5482|24 hrs|499"
-75.070997,39.736523,"WAWA [no fuel]-Sewell,NJ","464 Hurffville - Crosskeys Rd, Sewell,NJ 08080|(856) 589-5735|24 hrs|780"
-75.134415,39.770175,"WAWA [no fuel]-Sewell,NJ","701 Woodbury-Glassboro Rd, Sewell,NJ 08080|(856) 468-6235|24 hrs|360"
-74.176871,39.649263,"WAWA [no fuel]-Ship Bottom,NJ","902 Central Ave [unit 1], Ship Bottom,NJ 08008|(609) 361-2483|24 hrs|700"
-75.045979,39.770955,"WAWA [Diesel]-Sicklerville,NJ","2700 Sicklerville Road, Sicklerville,NJ 08081-1087|(856) 227-4430|24 hrs|981"
-74.994788,39.745601,"WAWA [Diesel]-Sicklerville,NJ","511 Berlin-cross Keys Rd, Sicklerville,NJ 08081-4368|(856) 875-7019|24 hrs|984"
-74.97,39.71802,"WAWA [Diesel]-Sicklerville,NJ","519 Williamstown Rd, Sicklerville,NJ 08081-2553|(856) 728-3308|24 hrs|416"
-75.012718,39.727823,"WAWA [no fuel]-Sicklerville,NJ","672 Cross Keys Road, Sicklerville,NJ 08081|(856) 875-8160|24 hrs|377"
-74.64892,40.40331,"WAWA [no fuel]-Skillman,NJ","1273 Route 206, Skillman,NJ 08553|(609) 924-4122|24 hrs|306"
-74.60027,39.30996,"WAWA [Diesel]-Somer Poing,NJ","16 Macarthur Blvd, Somer Poing,NJ 08244|(609) 653-1810|24 hrs|8324"
-75.018361,39.844554,"WAWA [Diesel]-Somerdale,NJ","2 North White Horse Pike, Somerdale,NJ 08083|(609) 672-4577|24 hrs|8346"
-74.592301,39.331013,"WAWA [Diesel]-Somers Point,NJ","112 New Road, Somers Point,NJ 08244|(609) 653-8922|24 hrs|461"
-74.59125,39.319331,"WAWA [no fuel]-Somers Point,NJ","502 Shore Road, Somers Point,NJ 08244|(609) 653-6150|24 hrs|433"
-74.4702,40.486706,"WAWA [Diesel]-Somerset,NJ","607 Somerset St, Somerset,NJ 08873|(732) 659-9902|24 hrs|8376"
-74.328814,40.718381,"WAWA [Diesel]-Soringfield,NJ","685 Morris Turnpike, Springfield,NJ 07081|(973) 996-4773|24 Hrs|8445"
-74.295131,40.460371,"WAWA [Diesel]-South Amboy,NJ","969 Route 9, South Amboy,NJ 08879|(732) 285-1112|3an-2am|8404"
-74.40328,40.46281,"WAWA [Diesel]-South River,NJ","656 Old Bridge Pike, South River,NJ 08882|(732) 254-2106|24 hrs|983"
-74.211025,39.942019,"WAWA [Diesel]-South Toms River,NJ","379 Dover Rd, South Toms River,NJ 08757|(848) 216-6178|24 hrs|8371"
-74.734522,39.970787,"WAWA [Diesel]-Southampton,NJ","2356 Vincentown Columbus Rd, Southampton,NJ 08088|(609) 267-1257|24 hrs|8300"
-74.75959,39.05539,"WAWA [no fuel]-Stone Harbor,NJ","9404 3rd Avenue, Stone Harbor,NJ 08247|(609) 368-3265|6 am-11 pm|342"
-75.304191,39.760585,"WAWA [Diesel]-Swedesboro,NJ","123 Paulsboro Rd, Swedesboro,NJ 08085|(856) 467-1722|24 hrs|974"
-75.359923,39.759422,"WAWA [Diesel]-Swedesboro,NJ","1700 Center Square Rd, Swedesboro,NJ 08085|(856) 241-7965|24 hrs|961"
-74.09074,40.258002,"WAWA [Diesel]-Tinton Falls,NJ","2000 Shafto Road, Tinton Falls,NJ 07712|(732) 493-2101|24 hrs|996"
-74.14787,39.9885,"WAWA [Diesel]-Toms River,NJ","1166 Fischer Boulevard, Toms River,NJ 08753|(732) 288-7900|24 hrs|939"
-74.15553,39.95317,"WAWA [no fuel]-Toms River,NJ","1600 Route 37 East, Toms River,NJ 08753|(732) 929-3420|24 hrs|763"
-74.217459,40.011734,"WAWA [Diesel]-Toms River,NJ","1680 Lakewood Road, Toms River,NJ 08753|(732) 341-0006|24 hrs|321"
-74.151729,40.004137,"WAWA [Diesel]-Toms River,NJ","1725 Hooper Avenue, Toms River,NJ 08753|(732) 864-1701|24 hrs|937"
-74.18571,39.96257,"WAWA [Diesel]-Toms River,NJ","179 Rt 37 East, Toms River,NJ 08754|(732) 736-7053|24 hrs|995"
-74.13264,39.95093,"WAWA [Diesel]-Toms River,NJ","2302 Route 37 East, Toms River,NJ 08753|(732) 270-9039|24 hrs|953"
-74.1797228,39.9619217,"WAWA [no fuel]-Toms River,NJ","254 Route 37 West, Toms River,NJ 08753|(732) 240-5728|24 hrs|429"
-74.231354,40.042243,"WAWA [Diesel]-Toms River,NJ","94 Route 70 @ Massachusetts Ave, Toms River,NJ 08755|(732) 905-4620|24 hrs|927"
-74.21965,39.965935,"WAWA [Diesel]-Toms River,NJ","Rt37 Northampton Ave, Toms River,NJ 08755|(732) 349-0052|24 hrs|8307"
-74.675594,40.264739,"WAWA [no fuel]-Trenton,NJ","3800 Mercerville @ Quakerbridge, Trenton,NJ 08619|(609) 584-8708|24 hrs|373"
-74.646887,40.191139,"WAWA [Diesel]-Trenton,NJ","3817 Crosswicks Hamilton Sq Rd, Trenton,NJ 08691-3760|(609) 585-0380|24 hrs|8342"
-74.342221,39.625624,"WAWA [Diesel]-Tuckerton,NJ","1201 Rt 539, Tuckerton,NJ 08087|(609) 296-8573|24 hrs|371"
-74.340581,39.602975,"WAWA [no fuel]-Tuckerton,NJ","20 East Main Street, Tuckerton,NJ 08087|(609) 296-6995|24 hrs|497"
-75.043079,39.738416,"WAWA [Diesel]-Turnersville,NJ","4231 Rt 42, Turnersville,NJ 08012-1712|(856) 875-1529|24 hrs|975"
-74.47103,39.34336,"WAWA [no fuel]-Ventnor,NJ","5206 Ventnor Avenue, Ventnor,NJ 08406|(609) 822-1196|24 hrs|753"
-74.934272,39.023042,"WAWA [Diesel]-Villas,NJ","1515 Bayshore Rd, Villas,NJ 08251|(609) 889-8971|24 hrs|963"
-74.743149,39.931949,"WAWA [no fuel]-Vincentown,NJ","2075 Route 206, Vincentown,NJ 08088|(609) 859-1614|24 hrs|376"
-74.781596,39.8312865,"WAWA [no fuel]-Vincentown,NJ","436 Oakshade (@ Indian Mills R, Vincentown,NJ 08088-8411|(609) 268-8282|24 hrs|457"
-74.595247,39.897681,"WAWA [no fuel]-Vincetown,NJ","4 Route 72, Vincetown,NJ 08088|(609) 894-9708|24 hrs|388"
-75.0621212,39.4878274,"WAWA [Diesel]-Vineland,NJ","1935 W Landis Ave, Vineland,NJ 08360|(856) 283-2955|24 Hrs|8484"
-75.042743,39.446271,"WAWA [Diesel]-Vineland,NJ","2802 South Delsea Drive, Vineland,NJ 08360|(856) 507-9243|24 hrs|924"
-75.041713,39.493754,"WAWA [Diesel]-Vineland,NJ","501 N Delsea Drive, Vineland,NJ 08360|(856) 507-5950|24 hrs|942"
-74.998966,39.483971,"WAWA [Diesel]-Vineland,NJ","61 South Main Rd, Vineland,NJ 08361|(856) 563-5390|24 hrs|999"
-74.97782,39.47549,"WAWA [Diesel]-Vineland,NJ","610 South Brewster Road, Vineland,NJ 08361|(856) 507-8990|24 hrs|926"
-74.998217,39.839016,"WAWA [no fuel]-Voorhees,NJ","1702 S Burnt Mill Rd, Voorhees,NJ 08043|(856) 435-5276|24 hrs|767"
-74.933971,39.871358,"WAWA [no fuel]-Voorhees,NJ","2999 East Evesham Rd., Voorhees,NJ 08043|(856) 424-7054|24 hrs|455"
-74.860638,39.722595,"WAWA [no fuel]-Waterford Works,NJ","1 North Whitehorse Pike, Waterford Works,NJ 08089|(856) 975-7090|24 hrs|322"
-74.921114,39.794991,"WAWA [Diesel]-West Berlin,NJ","409 N Route 73, West Berlin,NJ 08091|(856) 258-7131|24 hrs|956"
-75.1838,39.84696,"WAWA [Diesel]-West Deptford,NJ","496 Crown Point Road, West Deptford,NJ 08086|(856) 845-8343|24 hrs|480"
-74.855822,40.023657,"WAWA [Diesel]-Westampton,NJ","76 Springside Rd, Westampton,NJ 08060|(609) 871-9180|24 Hrs|8423"
-75.125658,39.852351,"WAWA [no fuel]-Westville,NJ","1080 Delsea Drive, Westville,NJ 08093|(856) 848-5405|24 hrs|779"
-74.39119,39.96019,"WAWA [Diesel]-Whiting,NJ","1180 Route 70, Whiting,NJ 08759-1003|(732) 350-5935|24 hrs|948"
-74.814502,38.992131,"WAWA [no fuel]-Wildwood,NJ","3200 New Jersey Ave, Wildwood,NJ 08260 |(609) 729-8701|24 hrs|954"
-74.82922,38.987204,"WAWA [Diesel]-Wildwood,NJ","418 West Rio Grande Ave, Wildwood,NJ 08260|(609) 729-6339|24 hrs|729"
-74.9740753,39.668691,"WAWA [Diesel]-Williamstown,NJ","1413 South Black Horse Pike, Williamstown,NJ 08094|(856) 728-1100|24 hours|775"
-74.98852,39.6859,"WAWA [Diesel]-Williamstown,NJ","332 South Black Horse Pike, Williamstown,NJ 08094|(856) 629-1325|24 hours|721"
-74.8811193,39.6030898,"WAWA [no fuel]-Williamstown,NJ","7 East Blackhorse Pike, Williamstown,NJ 08094|(609) 561-3438|24 hrs|714"
-75.0173,39.689896,"WAWA [no fuel]-Williamstown,NJ","882 Glassboro Rd, Williamstown,NJ 08094|(856) 875-4446|24 hrs|379"
-74.297392,40.536182,"WAWA [Diesel]-Woodbridge,NJ","440 King Georges Rd, Woodbridge,NJ 07095|(732) 442-5690|24 hours|8317"
-75.144174,39.843416,"WAWA [no fuel]-Woodbury,NJ","590 North Evegreen Ave, Woodbury,NJ 08096|(856) 845-8713|24 hrs|427"
-75.16089,39.82046,"WAWA [Diesel]-Woodbury Heights,NJ","856 Mantua Pike, Woodbury Heights,NJ 08097 |(856) 853-4380|24 hrs|951"
-75.33774,39.646,"WAWA [Diesel]-Woodstown,NJ","Rt 45 & Bailey St, Woodstown,NJ 08098|(856) 769-2809|24 hrs|459"
-74.631973,40.061224,"WAWA [no fuel]-Wrightstown,NJ","210 Georgetown/Wrightstown, Wrightstown,NJ 08562|(609) 723-5665|24 hrs|345"
-75.135669,40.122748,"WAWA [no fuel]-Abington,PA","2401 Susquehanna Road, Abington,PA 19001|(215) 886-5476|24 hrs|74"
-75.491173,40.603512,"WAWA [no fuel]-Allentown,PA","1501 West Gorden St, Allentown,PA 18102|(610) 435-9339|24 hrs|137"
-75.479854,40.572413,"WAWA [Diesel]-Allentown,PA","2209 Lehigh St, Allentown,PA 18103|(610) 797-6490|24 hrs|120"
-75.5225685,40.5831351,"WAWA [Diesel]-Allentown,PA","408 Cedar Crest Blvd, Allentown,PA 18103|(484) 326-6581|24 hrs|8078"
-75.617027,40.57228,"WAWA [Diesel]-Allentown,PA","7572 Schantz Road, Allentown,PA 18106|(610) 391-9535|24 hrs|266"
-75.44254,40.62459,"WAWA [Diesel]-Allentown,PA","911-941 Union Blvd, Allentown,PA 18109|(610) 439-6770|24 hrs|299"
-75.22512,40.17817,"WAWA [no fuel]-Ambler,PA","752 North Bethlehem Pike, Ambler,PA 19002|(215) 641-0866|24 hrs|43"
-75.294592,40.010188,"WAWA [no fuel]-Ardmore,PA","195 W Lancaster Ave, Ardmore,PA 19003|(610) 642-9545|24 hrs|66"
-75.43702,39.84915,"WAWA [Diesel]-Aston,PA","489 Conchester Hwy, Aston,PA 19061|(610) 485-2349|24 hrs|8059"
-75.42719,39.865316,"WAWA [Diesel]-Aston,PA","5008 Pennell Rd, Aston,PA 19014|(610) 494-4051|24 hrs|8027"
-75.795166,39.834703,"WAWA-Avondale,PA","761 Gap Newport Pike, Avondale,PA 19311|(610) 268-8765|24 hrs|160"
-75.230842,40.023213,"WAWA [no fuel]-Bala Cynwyd,PA","193 Belmont Avenue, Bala Cynwyd,PA 19004|(610) 664-9186|24 hrs|40"
-75.24042,40.01874,"WAWA [no fuel]-Bala Cynwyd,PA","801 Conshohocken State Road, Bala Cynwyd,PA 19004|(610) 667-2979|24 hrs|155"
-74.95971,40.07442,"WAWA [no fuel]-Bensalem,PA","1549 Bristol Pike, Bensalem,PA 19020|(215) 245-0879|24 hrs|45"
-74.944261,40.09597,"WAWA [no fuel]-Bensalem,PA","1883 Street Road, Bensalem,PA 19020|(215) 638-5646|24 hrs|267"
-74.942427,40.135617,"WAWA [no fuel]-Bensalem,PA","3338 Bristol Road, Bensalem,PA 19020|(215) 757-6997|24 hrs|77"
-74.963488,40.125019,"WAWA [Diesel]-Bensalem,PA","3620 Street Rd, Bensalem,PA 19020|(267) 522-8459|24 hrs|8072"
-74.91554,40.10558,"WAWA [no fuel]-Bensalem,PA","4662 Bensalem Blvd, Bensalem,PA 19020|(215) 639-0171|5am-12am|165"
-75.3952,40.63573,"WAWA [Diesel]-Bethlehem,PA","1584 8th Ave, Bethlehem,PA 18018|(610) 865-8275|24 hrs|8001"
-75.348211,40.644185,"WAWA [Diesel]-Bethlehem,PA","2525 Easton Ave, Bethlehem,PA 18017|(610) 758-8646|24 hrs|8036"
-75.418339,40.658698,"WAWA-Bethlehem,PA","3300 Schoenersville Road, Bethlehem,PA 18017|(610) 865-8270|24 hrs|297"
-75.360687,40.622395,"WAWA [Diesel]-Bethlehem,PA","741 East Broad St, Bethlehem,PA 18018|(619) 758-9472|24 hrs|8037"
-75.591693,41.092827,"WAWA [Diesel]-Blakeslee,PA","296 Route 940, Blakeslee,PA 18610|(570) 646-6707|24 hrs|159"
-75.29288,40.1658,"WAWA [Diesel]-Blue Bell,PA","1015 Dekalb Pike, Blue Bell,PA 19422|(610) 279-7014|24 hrs|8034"
-75.437133,39.829688,"WAWA [no fuel]-Boothwyn,PA","2300 Chichester Ave, Boothwyn,PA 19061|(610) 494-0226|24 hrs|30"
-75.440676,39.831169,"WAWA [Diesel]-Boothwyn,PA","2608 Chichester Ave, Boothwyn,PA 19061|(484) 214-6643|24 Hrs|8151"
-75.3450945,40.105465,"WAWA [no fuel]-Bridgeport,PA","112 W Fourth Street, Bridgeport,PA 19405|(610) 279-0824|24 hrs|216"
-74.838363,40.110452,"WAWA [no fuel]-Bristol,PA","200 Green Lane, Bristol,PA 19007|(215) 788-2750|6am-12am|196"
-74.881289,40.126943,"WAWA [Diesel]-Bristol,PA","3260 New Rodgers Road, Bristol,PA 19007|(215) 781-6007|24 hrs|219"
-74.84476,40.1175733,"WAWA [Diesel]-Bristol,PA","5900 Bristol Pike, Bristol,PA 19007|(215) 781-8080|24 hrs|268"
-74.849143,40.160185,"WAWA [Diesel]-Bristol,PA","7625 New Falls Rd, Bristol,PA 19055|(215) 949-2401|24 hrs|8004"
-75.393491,40.924402,"WAWA [no fuel]-Brodheadsville,PA","1781 Route 209, Brodheadsville,PA 18322|(570) 992-2511|24 hrs|197"
-75.39331,39.87642,"WAWA [Diesel]-Brookhaven,PA","4703 Edgemont Ave, Brookhaven,PA 19015|(610) 872-5183|24 hrs|8042"
-75.359568,39.966431,"WAWA [no fuel]-Broomall,PA","2050 Sproul Road, Broomall,PA 19008|(610) 356-9772|24 hrs|8"
-75.322064,40.017029,"WAWA [no fuel]-Bryn Mawr,PA","201 South Bryn Mawr Ave, Bryn Mawr,PA 19010|(610) 527-9039|24 hrs|168"
-75.060381,40.324277,"WAWA [no fuel]-Buckingham,PA","4713 York Rd, Buckingham,PA 18928|(215) 794-7394|24 hrs|215"
-75.536791,39.849876,"WAWA [Diesel]-Chadds Ford,PA","721 Naamans Creek Rd, Chadds Ford,PA 19317|(610) 459-9819|24 hrs|170"
-75.227751,40.267466,"WAWA [Diesel]-Chalfont,PA","525 W Butler Ave, Chalfont,PA 18914|(267) 532-4405|24 Hrs|8147"
-75.22859,40.266431,"WAWA [no fuel]-Chalfont,PA","545 West Butler Avenue, Chalfont,PA 18914|(215) 997-2445|24 hrs|200"
-75.694103,40.116472,"WAWA [Diesel]-Chester Springs,PA","1150 Pottstown Pike, Chester Springs,PA 19425|(215) 600-4979|24 hrs|8140"
-75.6859,40.07479,"WAWA [Diesel]-Chester Springs,PA","1800 Ticonderoga Blvd, Chester Springs,PA 19425|(610) 458-2310|24 hrs|201"
-75.31033,39.925617,"WAWA [Diesel]-Clifton Heights,PA","19 North Bishop Avenue, Clifton Heights,PA 19018|(610) 394-1260|24 hrs|293"
-75.303897,39.926743,"WAWA [Diesel]-Clifton Heights,PA","418 W Baltimore Pike, Clifton Heights,PA 19018|(610) 983-0500|24 hrs|8128"
-75.78937,40.008432,"WAWA [Diesel]-Coatesville,PA","105 Reeceville Rd, Coatesville,PA 19320|(484) 247-4872|24 hrs|8094"
-75.458869,40.177116,"WAWA [Diesel]-Collegeville,PA","1860 South Collegeville Rd, Collegeville,PA 19426|(610) 831-5224|24 hrs|8019"
-75.27908,39.91061,"WAWA [no fuel]-Collingdale,PA","910 Mcdade Blvd, Collingdale,PA 19023|(610) 237-0817|5am-12am|19"
-75.25491,40.26961,"WAWA [Diesel]-Colmar,PA","119 Bethlehem Pike, Colmar,PA 18915|(215) 997-2107|24 hrs|8018"
-75.290932,40.090265,"WAWA [no fuel]-Conshohocken,PA","1726 Butler Pike, Conshohocken,PA 19428|(610) 834-0364|24 hrs|67"
-75.3878815,40.522707,"WAWA [Diesel]-Coopersburg,PA","6680 Rt 309, Coopersburg,PA 18036|(610) 234-4257|24 Hrs|8126"
-75.99624,40.39061,"WAWA [Diesel]-Dauberville,PA","910 W Leesport Rd, Dauberville,PA 19533|(267) 448-0998|24 hrs|8119"
-75.729373,40.259804,"WAWA [Diesel]-Douglasville,PA","10 Maplewood Drive, Douglasville,PA 19518|(610) 385-1403|24 hrs|282"
-75.7456622,39.9960223,"WAWA [Diesel]-Dowingtown,PA","3710 Lincoln Hwy, Dowingtown,PA 19335|(484) 258-9475|24 hrs|8098"
-75.678401,40.019079,"WAWA [Diesel]-Downington,PA","1083 East Lancaster Ave, Downington,PA 19335|(610) 873-5121|24 hrs|118"
-75.70119,40.000528,"WAWA [Diesel]-Downingtown,PA","100 Boot Road, Downingtown,PA 19335|(610) 269-3861|24 hrs|245"
-75.703722,40.008934,"WAWA [no fuel]-Downingtown,PA","100 Wallace Street, Downingtown,PA 19335|(610) 269-7391|24 hrs|226"
-75.127494,40.300307,"WAWA [Diesel]-Doylestown,PA","425 South Main Street, Doylestown,PA 18901|(267) 309-2868|24 hrs|8125"
-75.29722,39.94402,"WAWA [no fuel]-Drexel Hill,PA","3800 Garret Road, Drexel Hill,PA 19026|(610) 626-9647|24 hrs|212"
-75.30155,39.94698,"WAWA [no fuel]-Drexel Hill,PA","525 Burmont Avenue, Drexel Hill,PA 19026|(610) 623-3010|24 hrs|12"
-76.351568,40.093033,"WAWA [Diesel]-East Petersburg,PA","1990 Miller Road, East Petersburg,PA 17520|(717) 560-3021|24 hrs|158"
-75.1769517,40.9941517,"WAWA [no fuel]-East Stroudsburg,PA","207 Prospect Street, East Stroudsburg,PA 18301|(570) 421-1227|24 hrs|112"
-75.094123,41.055441,"WAWA [Diesel]-East Stroudsburg,PA","5121 Milford Rd, East Stroudsburg,PA 18302|(570) 223-8578|24 hrs|8026"
-75.205648,40.700212,"WAWA [no fuel]-Easton,PA","225 Cattell Street, Easton,PA 18042|(610) 253-4312|24 hrs|101"
-75.209844,40.68702,"WAWA [no fuel]-Easton,PA","310 Larry Holmes Drive, Easton,PA 18042|(610) 252-4137|24 hrs|89"
-75.289617,40.719355,"WAWA [Diesel]-Easton,PA","3820 Easton Nazareth Hwy, Easton,PA 18045|(610) 759-1070|24 hrs|8046"
-75.248303,40.680578,"WAWA [Diesel]-Easton,PA","631 South 25th St, Easton,PA 18045|(610) 252-4152|24 hrs|8032"
-76.19592,40.17245,"WAWA [Diesel]-Ephrata,PA","602 S Reading Road, Ephrata,PA 17522|(717) 721-9616|24 hrs|260"
-75.29428,39.8665,"WAWA [no fuel]-Essington,PA","600 S Governor Prince Blvd, Essington,PA 19029|(610) 521-5324|24 hrs|254"
-75.662936,40.047456,"WAWA [Diesel]-Exton,PA","551 West Uwchlan Ave, Exton,PA 19341|(610) 363-4046|24 hrs|8033"
-75.647104,40.055253,"WAWA [No Diesel-Exton,PA","750 North Pottstown Pike, Exton,PA 19341|(610) 363-9712|24 hrs|85"
-74.978977,40.121167,"WAWA [Diesel]-Feasterville Trevose,PA","2250 Lincoln Highway, Feasterville Trevose,PA 19053|(215) 638-5640|24 hrs|277"
-74.988994,40.139545,"WAWA [Diesel]-Feasterville Trevose,PA","601 Street Rd E, Feasterville Trevose,PA 19053|(215) 355-4370|24 hrs|8075"
-74.9771,40.149867,"WAWA [no fuel]-Feasterville Trevose,PA","676 Rosewood Avenue, Feasterville Trevose,PA 19053|(215) 357-0926|24 hrs|38"
-75.002457,40.150218,"WAWA [Diesel]-Feasterville Trevose,PA","929 Bustleton Pk, Feasterville Trevose,PA 19053|(215) 323-6875|24 hrs|8136"
-75.21382,40.10655,"WAWA [no fuel]-Flourtown,PA","1601 Bethlehem Pike, Flourtown,PA 19031|(215) 233-0210|24 hrs|21"
-75.282784,39.904389,"WAWA [Diesel]-Folcroft,PA","1550 Chester Pk, Folcroft,PA 19032|(610) 586-5191|24 hrs|8007"
-75.330058,39.883703,"WAWA [Diesel]-Folsom,PA","111 Morton Ave, Folsom,PA 19033|(610) 628-1914|24 hrs|8048"
-75.31569,39.8954,"WAWA [Diesel]-Folsom,PA","1730 Macdade Blvd, Folsom,PA 19033|(610) 583-1204|24 hrs|8081"
-75.212585,40.1383,"WAWA [no fuel]-Fort Washington,PA","106 Bethlehem Pike, Fort Washington,PA 19034|(215) 646-2972|24 hrs|156"
-75.17204,40.13932,"WAWA [Diesel]-Fort Washington,PA","1145 Virginia Ave, Fort Washington,PA 19034|(215) 628-3134|24 hrs|8060"
-75.401387,40.599971,"WAWA [no fuel]-Fountain Hill,PA","1429 Broadway, Fountain Hill,PA 18015|(610) 867-3133|24 hrs|87"
-76.020129,39.990878,"WAWA [Diesel]-Gap,PA","787 Rt 41, Gap,PA 17527|(717) 942-0003|24 hrs|8025"
-75.633526,40.31102,"WAWA [Diesel]-Gilbertsville,PA","1111 Grosser Rd, Gilbertsville,PA 19525|(610) 473-0250|24 hrs|8067"
-75.58558,40.29953,"WAWA [Diesel]-Gilbertsville,PA","1906 Swamp Pike, Gilbertsville,PA 19525|(610) 718-0933|24 hrs|134"
-75.48539,39.89649,"WAWA [Diesel]-Glen Mills,PA","36 Baltimore Pike, Glen Mills,PA 19342|(610) 558-8341|24 hrs|269"
-75.534549,39.884947,"WAWA [Diesel]-Glen Mills,PA","971 Baltimore Pike, Glen Mills,PA 19331|(610) 558-8052|24 hrs|198"
-75.39127,39.93435,"WAWA [Diesel]-Glen Riddle,PA","1260 N. Providence Road, Glen Riddle,PA 19063|(484) 838-7599|24 hrs|8114"
-75.29168,39.90499,"WAWA [no fuel]-Glenolden,PA","3 N McDade Blvd., Glenolden,PA 19036|(610) 586-1660|24 hrs|174"
-75.1649562,40.1045258,"WAWA [no fuel]-Glenside,PA","82 Limekiln Pike, Glenside,PA 19038|(215) 253-7066|24 hrs|111"
-76.007682,40.564382,"WAWA [Diesel]-Hamburg,PA","515 Lowland Rd, Hamburg,PA 19526|(610) 562-8314|24 hrs|8051"
-75.370715,40.264675,"WAWA [Diesel]-Harleysville,PA","201 Main St, Harleysville,PA 19438|(267) 532-4498|24 Hrs|8135"
-75.379716,40.275057,"WAWA [no fuel]-Harleysville,PA","371 Main Street, Harleysville,PA 19438|(215) 256-4560|24 hrs|242"
-75.105349,40.178974,"WAWA [no fuel]-Hatboro,PA","50 North York Road, Hatboro,PA 19040|(215) 674-3192|24 hrs|204"
-75.28402,40.29779,"WAWA [Diesel]-Hatfield,PA","2480 Bethlehem Pike, Hatfield,PA 19440|(215) 822-0690|24 hrs|8056"
-75.303606,39.97622,"WAWA [no fuel]-Havertown,PA","1000 Darby Road, Havertown,PA 19083|(610) 446-9487|24 hrs|265"
-75.308991,39.988603,"WAWA [no fuel]-Havertown,PA","33-35 Eagle Road, Havertown,PA 19083|(610) 789-9852|24 hrs|54"
-75.552338,40.448618,"WAWA [Diesel]-Hereford,PA","8053 Chestnut St, Hereford,PA 18056|(267) 996-3788|24 Hrs|8155"
-75.9712162,40.2985382,"WAWA [no fuel]-Holland,PA","236 Holland Street, Holland,PA 18966|(215) 357-2602|24 hrs|128"
-75.30775,39.89835,"WAWA [no fuel]-Holmes,PA","2306 Mcdade Blvd., Holmes,PA 19043|(610) 522-9835|24 hrs|239"
-75.1283167,40.1737617,"WAWA [Diesel]-Horsham,PA","101 Easton Rd, Horsham,PA 19044|(267) 262-6808|24 hrs|8088"
-75.147416,40.160105,"WAWA [Diesel]-Horsham,PA","132 Welsh Road, Horsham,PA 19044|(267) 358-3903|24 hrs|8156"
-75.138842,40.209913,"WAWA [Diesel]-Horsham,PA","1510 Easton Rd, Horsham,PA 19044|(215) 441-3050|24 hrs|285"
-75.145376,40.18715,"WAWA [Diesel]-Horsham,PA","535 Horsham Road, Horsham,PA 19044|(215) 441-6390|24 hrs|271"
-75.185187,40.210982,"WAWA-Horsham Twsp,PA","1139 Horsham Rd., Horsham Twsp,PA 19002|(215) 641-2830|24 hrs|148"
-75.058772,40.121106,"WAWA [Diesel]-Huntingdon Valley,PA","2500 Philmont Ave, Huntingdon Valley,PA 19066|(215) 938-8435|24 hrs|8057"
-75.09617,40.20487,"WAWA [Diesel]-Ivyland,PA","555 West St Rd, Ivyland,PA 18974|(215) 444-0894|24 hrs|8055"
-75.089777,40.246608,"WAWA [Diesel]-Jamison,PA","1937 York Rd, Jamison,PA 18929|(215) 343-4934|24 hrs|8022"
-75.124899,40.105762,"WAWA [Diesel]-Jenkintown,PA","816 Old York Rd, Jenkintown,PA 19046|(215) 886-1921|24 hrs|8066"
-75.71762,39.84463,"WAWA [no fuel]-Kennett Square,PA","504 West Cypress Street, Kennett Square,PA 19348|(610) 444-9949|24 hrs|34"
-75.67926,39.8637,"WAWA [Diesel]-Kennett Square,PA","901 East Baltimore Pike, Kennett Square,PA 19348|(610) 388-6400|24 hrs|8015"
-75.364968,40.093192,"WAWA [Diesel]-King Of Prussia,PA","145 W Dekalb Pike, King Of Prussia,PA 19406|(610) 265-2913|24 hrs|8058"
-75.387168,40.08478,"WAWA [no fuel]-King Of Prussia,PA","196 South Gulph Road, King Of Prussia,PA 19406|(610) 265-1861|24 hrs|42"
-75.338374,40.244998,"WAWA [no fuel]-Kulpsville,PA","1401 Forty Foot Road, Kulpsville,PA 19443|(215) 362-1590|24 hrs|79"
-75.26159,40.092386,"WAWA [no fuel]-Lafayette Hill,PA","406 Germantown Pike, Lafayette Hill,PA 19444|(610) 825-2560|24 hrs|97"
-76.2316,40.02937,"WAWA [Diesel]-Lancaster,PA","2126-2132 Lincoln Highway East, Lancaster,PA 17602|(717) 481-5240|24 hrs|275"
-74.87069,40.179478,"WAWA-Langhorne,PA","132 Oxford Valley Rd, Langhorne,PA 19056|(215) 949-1024|24 hrs|8020"
-74.896459,40.154747,"WAWA [no fuel]-Langhorne,PA","1528 Trenton Rd, Langhorne,PA 19047|(215) 757-1037|24 hrs|70"
-75.314598,40.228466,"WAWA [no fuel]-Lansdale,PA","1601 Valley Forge Road, Lansdale,PA 19446|(215) 361-8577|24 hrs|273"
-75.32114,40.26279,"WAWA [Diesel]-Lansdale,PA","200 Forty Foot Rd, Lansdale,PA 19440|(215) 362-5265|24 hrs|8050"
-75.272391,39.94101,"WAWA [no fuel]-Lansdowne,PA","67 Lansdowne Ave., Lansdowne,PA 19050|(610) 623-5430|24 hrs|73"
-74.821419,40.144571,"WAWA [Diesel]-Levittown,PA","225 A Levittown Pkwy, Levittown,PA 19054|(267) 705-4331|24 Hrs|8127"
-74.875227,40.140434,"WAWA [no fuel]-Levittown,PA","5220 New Falls Road, Levittown,PA 19056|(215) 945-1020|24 hrs|184"
-74.860639,40.141342,"WAWA [no fuel]-Levittown,PA","6016 Emilie Road, Levittown,PA 19057|(215) 946-1531|24 hrs|60"
-75.529435,40.232278,"WAWA [Diesel]-Linfield,PA","451 West Ridge Pike, Linfield,PA 19468|(610) 495-4740|24 hrs|8038"
-75.421027,39.825677,"WAWA [no fuel]-Linwood,PA","1439 Market Street, Linwood,PA 19061|(610) 485-4855|24 hrs|7"
-75.56472,40.519511,"WAWA [Diesel]-Macungie,PA","3321 Willow Lane, Macungie,PA 18062|(610) 966-8593|24 hrs|98"
-75.516274,40.035763,"WAWA [no fuel]-Malvern,PA","105 West King Street, Malvern,PA 19355|(610) 993-8714|24 hrs|236"
-75.524694,40.050517,"WAWA [Diesel]-Malvern,PA","5 Matthews Road, Malvern,PA 19355|(610) 640-5322|24 hrs|205"
-75.571606,40.035682,"WAWA-Malvern,PA","567 Lancaster Avenue, Malvern,PA 19355|(610) 647-7601|24 hrs|208"
-75.535739,40.06804,"WAWA [Diesel]-Malvern,PA","605 Morehall Rd, Malvern,PA 19355|(484) 320-8314|24 hrs|8091"
-75.3876307,39.9162188,"WAWA [no fuel]-Media,PA","100 East Baltimore Pike, Media,PA 19063|(610) 566-9663|24 hrs|100"
-75.4311163,39.9145162,"WAWA [Diesel]-Media,PA","1073 Baltimore Pk, Media,PA 19063|(484) 546-8878|24 hrs|8148"
-75.44253,39.91089,"WAWA [Diesel]-Media,PA","1242 W Baltimore Pike, Media,PA 19063|(610) 370-4701|24 hrs|8083"
-75.39649,39.9182,"WAWA [Diesel]-Media,PA","435 Baltimore Ave, Media,PA 19063|(484) 445-4489|24 hrs|8082"
-75.232692,40.222707,"WAWA [Diesel]-Montgomeryville,PA","1008 Bethlehem Pike, Montgomeryville,PA 18936|(267) 322-2545|24 hrs|8101"
-75.241092,40.244534,"WAWA [no fuel]-Montgomeryville,PA","981 North Wales Road, Montgomeryville,PA 18936|(215) 352-3722|24 hrs|222"
-75.897553,40.154021,"WAWA [Diesel]-Morgantown,PA","2837 Main St, Morgantown,PA 19543|(610) 544-5732|24 hrs|8129"
-74.79392,40.17188,"WAWA [no fuel]-Morrisville,PA","1344 Bristol Pike, Morrisville,PA 19067|(215) 295-8683|24 hrs|142"
-74.7939137,40.2113818,"WAWA [Diesel]-Morrisville,PA","545 West Trenton Ave, Morrisville,PA 19067|(267) 768-8611|24 hrs|8076"
-74.805015,40.205705,"WAWA [no fuel]-Morrisville,PA","549 Trenton Ave, Morrisville,PA 19067|(267) 297-3352|6am-10pm Drive thru|8172"
-75.32595,39.907376,"WAWA [no fuel]-Morton,PA","21 Kedron Avenue, Morton,PA 19070|(610) 328-6420|24 hrs|178"
-75.261986,40.012268,"WAWA [no fuel]-Narberth,PA","949 Montgomery Avenue, Narberth,PA 19072|(610) 660-5920|24 hrs|294"
-74.96571,40.362734,"WAWA [no fuel]-New Hope,PA","341 West Bridge Street, New Hope,PA 18938|(215) 862-9330|24 hrs|185"
-75.402685,39.988569,"WAWA [no fuel]-Newtown Square,PA","50 N. Newtown St. Road, Newtown Square,PA 19073|(610) 356-9769|24 hrs|8086"
-75.389069,40.141257,"WAWA [Diesel]-Norristown,PA","2544 W Main St, Norristown,PA 19403|(610) 631-2781|24 hrs|8061"
-75.348705,40.152859,"WAWA [Diesel]-Norristown,PA","701 W Germantown Pike, Norristown,PA 19403|(610) 631-3146|24 hrs|292"
-75.405925,40.127419,"WAWA [Gas]-Norristown,PA","705 South Trooper Rd, Norristown,PA 19403|(610) 539-5701|24 hrs|8003"
-75.24719,40.21921,"WAWA [Diesel]-North Wales,PA","593 Dekalb Pike, North Wales,PA 19454|(215) 699-1844|24 hrs|157"
-75.27581,40.21644,"WAWA [no fuel]-North Wales,PA","710 East Walnut Street, North Wales,PA 19454|(215) 375-7410|6 am-11 pm|96"
-76.020998,39.749911,"WAWA [Diesel]-Nottingham,PA","100 Ponds Edge Drive, Nottingham,PA 19362|(610) 932-7161|24 hrs|289"
-75.485822,40.041446,"WAWA [no fuel]-Paoli,PA","52 W Lancaster Avenue, Paoli,PA 19301|(610) 640-9854|24 hrs|57"
-75.933794,39.984213,"WAWA [Diesel]-Parkesburg,PA","3711 West Lincoln Highway, Parkesburg,PA 19365|(610) 857-4206|24 hrs|263"
-75.219643,40.381672,"WAWA [no fuel]-Perkasie,PA","320 West Route 313, Perkasie,PA 18944|(215) 249-1679|24 hrs|229"
-75.023519,40.111488,"WAWA [Diesel]-Philadelphia,PA","10901 Bustleton Ave, Philadelphia,PA 19115|(215) 464-7101|24 hrs|8047"
-75.1589274,39.9517766,"WAWA [no fuel]-Philadelphia,PA","1190 Market St, Philadelphia,PA 19107|(215) 259-3685|24 hrs|8112"
-75.002253,40.1046819,"WAWA [Diesel]-Philadelphia,PA","12004 E Roosevelt Blvd, Philadelphia,PA 19116|(484) 430-3720|24 hrs|8110"
-74.9761,40.095771,"WAWA [Diesel]-Philadelphia,PA","12301 Academy Rd, Philadelphia,PA 19154|(215) 824-2582|24 hrs|8035"
-75.23304,39.932575,"WAWA [no fuel]-Philadelphia,PA","1300 Chester St, Philadelphia,PA 19107|(215) 315-3683|24 hrs|8113"
-75.102802,40.005317,"WAWA [no fuel]-Philadelphia,PA","1300 East Erie Ave, Philadelphia,PA 19124|(215) 289-9101|24 hrs|207"
-75.011544,40.131974,"WAWA [no fuel]-Philadelphia,PA","14101 Bustleton Pike, Philadelphia,PA 19116|(215) 676-8110|24 hrs|232"
-75.1512383,39.94906,"WAWA [no fuel]-Philadelphia,PA","150 S Independ W, Philadelphia,PA 19106|(none listed)|24 hrs|8131"
-75.145403,39.926451,"WAWA [no fuel]-Philadelphia,PA","1602 South Delware Ave, Philadelphia,PA 19148|(215) 755-5858|24 hrs|191"
-75.168336,39.955179,"WAWA [no fuel]-Philadelphia,PA","1707 Arch Street, Philadelphia,PA 19103|(215) 977-9558|24 hrs|86"
-75.172274,39.953149,"WAWA [no fuel]-Philadelphia,PA","1900 Market St, Philadelphia,PA 19103|(215) 908-5727|24 hrs|8093"
-75.17156,39.962145,"WAWA [no fuel]-Philadelphia,PA","2000 Hamilton St, Philadelphia,PA 19103|(215) 988-0648|24 hrs|161"
-75.145742,39.942086,"WAWA [no fuel]-Philadelphia,PA","200-210 Lombard St, Philadelphia,PA 19147|(215) 629-1050|24 hrs|247"
-75.164035,39.949208,"WAWA [no fuel]-Philadelphia,PA","201 South Broad St, Philadelphia,PA 19107|(215) 732-1379|5 am-11 pm|8069"
-75.178446,39.94533,"WAWA [no fuel]-Philadelphia,PA","2131 South St, Philadelphia,PA 19146|(267) 538-1149|24 hrs|8105"
-75.118461,39.977185,"WAWA [Diesel]-Philadelphia,PA","2535 Aramingo Ave, Philadelphia,PA 19135|(215) 426-8163|24 hrs|8013"
-75.023695,40.077364,"WAWA [Diesel]-Philadelphia,PA","2600 Grant Ave, Philadelphia,PA 19114|(215) 677-1708|24 hrs|8030"
-75.196522,39.904061,"WAWA [Diesel]-Philadelphia,PA","2600 Penrose Ave, Philadelphia,PA 19145|(267) 996-3959|24 Hours|8132"
-75.1084671,39.9865456,"WAWA [no fuel]-Philadelphia,PA","3222-48 Richmond At Allegheny, Philadelphia,PA 19134|(215) 426-8282|24 hrs|119"
-75.167016,39.951797,"WAWA [no fuel]-Philadelphia,PA","33 S 16th St, Philadelphia,PA 19102|(267) 866-7609|6am-10pm|8154"
-75.191049,39.955378,"WAWA [no fuel]-Philadelphia,PA","3300 Market St, Philadelphia,PA 19104|(215) 375-7996|24 hrs|8141"
-75.005383,40.068756,"WAWA [Diesel]-Philadelphia,PA","3341 Grant Ave, Philadelphia,PA 19114|(215) 824-1283|24 hrs|8064"
-75.194899,39.954541,"WAWA [no fuel]-Philadelphia,PA","3604 Chestnut Street, Philadelphia,PA 19104|(215) 222-6422|24 hrs|55"
-75.198987,39.950976,"WAWA [no fuel]-Philadelphia,PA","3744 Spruce St, Philadelphia,PA 19104|(215) 387-0029|24 hrs|179"
-75.088427,39.997262,"WAWA [Diesel]-Philadelphia,PA","3901 Aramingo Ave, Philadelphia,PA 19137|(215) 533-2153|24 hrs|8065"
-75.074424,39.99654,"WAWA [no fuel]-Philadelphia,PA","4371 Richmond Street, Philadelphia,PA 19137|(215) 289-8950|24 hrs|252"
-75.09701,40.018885,"WAWA [no fuel]-Philadelphia,PA","4506-10 Castor Avenue, Philadelphia,PA 19124|(215) 743-1565|24 hrs|240"
-75.068247,40.011945,"WAWA [Diesel]-Philadelphia,PA","5597 Tulip St, Philadelphia,PA 19124|(267) 768-7176|24 hrs|8104"
-75.06276,40.02217,"WAWA [no fuel]-Philadelphia,PA","6001 Harbison Street, Philadelphia,PA 19135|(215) 533-7440|24 hrs|193"
-75.070241,40.036173,"WAWA [Diesel]-Philadelphia,PA","6460 Bustleton Ave., Philadelphia,PA 19149|(215) 533-2110|24 hrs|115"
-75.056196,40.030007,"WAWA [no fuel]-Philadelphia,PA","6506 Frankford Ave, Philadelphia,PA 19101|(215) 333-7830|24 hrs|8009"
-75.223902,40.040982,"WAWA [Diesel]-Philadelphia,PA","6701 Ridge Ave, Philadelphia,PA 19128|(215) 483-6700|24 hrs|8049"
-75.0904717,40.0558537,"WAWA [Diesel]-Philadelphia,PA","6858 Rising Sun Ave, Philadelphia,PA 19111|(215) 725-1421|24 hrs|8006"
-75.070243,40.046378,"WAWA [no fuel]-Philadelphia,PA","6935 Castor Avenue, Philadelphia,PA 19149|(215) 342-1105|24 hrs|183"
-75.05736,40.04028,"WAWA [Diesel]-Philadelphia,PA","7001 Roosevelt Blvd, Philadelphia,PA 19149|(215) 331-0245|24 hrs|8052"
-75.191959,40.060757,"WAWA [no fuel]-Philadelphia,PA","7236-40 Germantown Ave., Philadelphia,PA 19119|(215) 242-0820|24 hrs|125"
-75.032629,40.039551,"WAWA [no fuel]-Philadelphia,PA","7715 Frankford Avenue, Philadelphia,PA 19136|(215) 333-8709|24 hrs|262"
-75.0494383,40.0554773,"WAWA [Diesel]-Philadelphia,PA","7912 E Roosevelt Blvd, Philadelphia,PA 19152|(267) 343-5512|24 hrs|8087"
-75.086066,40.063187,"WAWA [no fuel]-Philadelphia,PA","801 Cottman Ave, Philadelphia,PA 19111|(215) 987-3803|5am-12am|84"
-75.054417,40.064172,"WAWA [no fuel]-Philadelphia,PA","8152 Castor Ave., Philadelphia,PA 19152|(215) 342-3841|24 hrs|181"
-75.242008,39.891192,"WAWA [Diesel]-Philadelphia,PA","8220 West Bartram Ave, Philadelphia,PA 19153|(215) 492-0824|24 hrs|8053"
-75.157212,39.94271,"WAWA [no fuel]-Philadelphia,PA","901 South St, Philadelphia,PA 19147|(267) 297-3139|24 hrs|8144"
-75.0060787,40.0520055,"WAWA [Diesel]-Philadelphia,PA","9101 Frankford Ave., Philadelphia,PA 19114|(267) 244-9838|24 Hrs|8152"
-75.156662,39.948195,"WAWA [no fuel]-Philadelphia,PA","912-16 Walnut Street, Philadelphia,PA 19107|(215) 923-1404|24 hrs|103"
-75.004187,40.054842,"WAWA [no fuel]-Philadelphia,PA","9201 Frankford Avnue, Philadelphia,PA 19114|(215) 332-9980|24 hrs|211"
-75.044324,40.087675,"WAWA [Diesel]-Philadelphia,PA","9377 Krewstown Rd, Philadelphia,PA 19115|(215) 464-2628|24 hrs|8054"
-74.98951,40.04966,"WAWA [no fuel]-Philadelphia,PA","9440 State Road, Philadelphia,PA 19114|(267) 358-6111|24 hrs|108"
-75.084277,40.074922,"WAWA [Diesel]-Philadephia,PA","7913-29 Oxford Avenue, Philadephia,PA 19111|(215) 342-8285|24 hrs|276"
-75.537044,40.132085,"WAWA [Diesel]-Phoenixville,PA","120 Schuylkill Rd, Phoenixville,PA 19460|(610) 933-8524|24 hrs|8024"
-75.451316,40.134278,"WAWA [Diesel]-Phoenixville,PA","1600 Egypt Rd, Phoenixville,PA 19460|(610) 650-4270|24 hrs|8062"
-75.147366,40.385604,"WAWA [No Diesel]-Pipersville,PA","5854 Easton Road, Pipersville,PA 18947|(215) 766-1620|24 hrs|288"
-75.319213,40.107445,"WAWA [Diesel]-Plymouth Meeting,PA","1300 E Ridge Pike, Plymouth Meeting,PA 19462|(484) 679-1291|24 hours|8071"
-75.661053,40.2084,"WAWA [Diesel]-Pottstown,PA","1417 South Hanover Street, Pottstown,PA 19465|(610) 326-1090|24 hrs|295"
-75.614868,40.24374,"WAWA [Diesel]-Pottstown,PA","1520 E High St, Pottstown,PA 19464|(610) 718-0889|24 hrs|8040"
-75.65835,40.232775,"WAWA [Diesel]-Pottstown,PA","260 West Schuykill Rd, Pottstown,PA 19465|(610) 718-0885|24 hrs|146"
-75.298954,39.921026,"WAWA [no fuel]-Primos,PA","502 Oak Avenue, Primos,PA 19018|(610) 623-1156|24 hrs|9"
-75.3078517,39.8851367,"WAWA [no fuel]-Prospect Park,PA","917 Lincoln Avenue, Prospect Park,PA 19076|(610) 461-1539|24 hrs|235"
-75.309402,39.880362,"WAWA [no fuel]-Prospect Park,PA","934 Chester Pike, Prospect Park,PA 19076|(610) 237-8808|24 hrs|23"
-75.343525,40.4180767,"WAWA [Diesel]-Quakertown,PA","1095 S. West End Boulevard, Quakertown,PA 18951|(215) 538-1634|24 hrs|272"
-75.413986,40.4365,"WAWA [Diesel]-Quakertown,PA","1960 John Fries Hwy, Quakertown,PA 18951|(215) 538-2074|24 hrs|8021"
-75.36916,40.459579,"WAWA [Diesel]-Quakertown,PA","600 Northwest End Blvd, Quakertown,PA 18951|(215) 538-4393|24 hrs|8044"
-75.9162763,40.3648502,"WAWA [Diesel]-Reading,PA","1946 North 11th St., Reading,PA 19604|(610) 921-4500|24 hrs|153"
-76.009183,40.326015,"WAWA [Diesel]-Reading,PA","3337 Penn Avenue, Reading,PA 19608|(610) 927-2380|24 hrs|286"
-75.935758,40.389102,"WAWA [Diesel]-Reading,PA","3650 Pottsville Pike, Reading,PA 19605|(610) 921-4380|24 hrs|274"
-75.93516,40.32082,"WAWA [Diesel]-Reading,PA","413 Lancaster Ave, Reading,PA 19611|(484) 403-0440|24 hrs|8109"
-75.853721,40.301423,"WAWA [Diesel]-Reading,PA","5060 Perkiomen Ave, Reading,PA 19606|(610) 779-1406|24 hrs|166"
-75.01256,40.21078,"WAWA [Diesel]-Richboro,PA","870 Second Street Pike, Richboro,PA 18954|(267) 831-0360|24 hrs|8121"
-75.3174,39.877648,"WAWA [Diesel]-Ridley Park,PA","390 E Chester Pike, Ridley Park,PA 19078|(484) 324-6066|24 Hours|8133"
-75.49979,40.21412,"WAWA [Diesel]-Royersford,PA","1860 Ridge Pike, Royersford,PA 19468|(610) 831-5220|24 hrs|141"
-75.546408,40.215012,"WAWA [Diesel]-Royersford,PA","579 N Lewis Rd, Royersford,PA 19468|(610) 495-4735|24 hrs|8005"
-75.528455,40.193057,"WAWA [Diesel]-Royersford,PA","934 Main Street, Royersford,PA 19486|(610) 792-1940|24 hrs|284"
-75.4048,40.22855,"WAWA [Diesel]-Schwenksville,PA","4121 Skippack Pike, Schwenksville,PA 19473|(610) 584-3281|24 hrs|143"
-75.30415,40.32009,"WAWA [Diesel]-Souderton,PA","3520 Bethlehem Pike, Souderton,PA 18964|(215) 723-2204|24 hrs|8008"
-75.32848,40.313458,"WAWA [no fuel]-Souderton,PA","370 North Main Street, Souderton,PA 18964|(215) 721-1180|24 hrs|105"
-75.569255,40.182957,"WAWA [Diesel]-Spring City,PA","3380 Schuykill Road, Spring City,PA 19475|(610) 792-4335|24 hrs|258"
-75.333082,39.92723,"WAWA [no fuel]-Springfield,PA","195 Saxer Avenue, Springfield,PA 19064|(610) 328-3909|24 hrs|154"
-75.405089,40.044744,"WAWA [no fuel]-Strafford,PA","151 Sugartown Rd, Strafford,PA 19087|(610) 254-8537|24 hrs|291"
-75.200737,40.983181,"WAWA [no fuel]-Stroudsburg,PA","1015 West Main Street, Stroudsburg,PA 18360|(570) 424-8474|24 hrs|116"
-75.762932,39.993745,"WAWA [Diesel]-Thorndale,PA","3025 Lincoln Hwy, Thorndale,PA 19372|(610) 384-1335|24 hrs|8011"
-75.278521,39.961337,"WAWA [no fuel]-Upper Darby,PA","202 South State Rd, Upper Darby,PA 19082|(610) 446-3997|24 hrs|14"
-75.257516,39.95246,"WAWA [no fuel]-Upper Darby,PA","460 S. 69th Street, Upper Darby,PA 19082|(610) 259-6320|24 hrs|11"
-75.28094,39.96567,"WAWA [Diesel]-Upper Darby,PA","8240 West Chester Pk, Upper Darby,PA 19082|(484) 213-2924|24 hrs|8055"
-75.0714083,40.1714933,"WAWA [Diesel]-Warminster,PA","40 Davisville Road, Warminster,PA 18974|(215) 970-2324|24 hrs|149"
-75.139856,40.228167,"WAWA [no fuel]-Warrington,PA","550 Easton Road, Warrington,PA 18976|(215) 343-6350|24 hrs|221"
-75.392783,40.044558,"WAWA [no fuel]-Wayne,PA","215 W Lancaster Ave, Wayne,PA 19087|(610) 688-7313|24 hrs|257"
-75.55235,40.56646,"WAWA [Diesel]-Wescosville,PA","4900 Hamilton Boulevard, Wescosville,PA 18106|(610) 530-9980|24 hrs|287"
-75.616197,40.009317,"WAWA [no fuel]-West Chester,PA","10 West Boot Road, West Chester,PA 19380|(610) 692-4640|24 hrs|203"
-75.576227,39.967761,"WAWA [Diesel]-West Chester,PA","1050 West Chester Pike, West Chester,PA 19382|(610) 429-1205|24 hrs|8068"
-75.61583,39.9907,"WAWA [Diesel]-West Chester,PA","1195 Pottstown Pke, West Chester,PA 19380|(610) 696-9832|24 hrs|81"
-75.56216,39.90081,"WAWA [Diesel]-West Chester,PA","1413 Wilmington Pk, West Chester,PA 19382|(610) 696-6781|24 hrs|298"
-75.52737,39.9673,"WAWA [Diesel]-West Chester,PA","1501 West Chester Pike, West Chester,PA 19382|(610) 696-7523|24 hrs|8045"
-75.54486,39.99406,"WAWA [no fuel]-West Chester,PA","1594 Paoli Pike, West Chester,PA 19380|(610) 696-9814|24 hrs|88"
-75.6072311,39.9641991,"WAWA [no fuel]-West Chester,PA","2 East Rhoads Avenue, West Chester,PA 19380|(610) 696-9905|24 hrs|25"
-75.593709,39.9651,"WAWA [Diesel]-West Chester,PA","706 East Gay Street, West Chester,PA 19380|(610) 701-4760|24 hrs|278"
-75.309926,40.067852,"WAWA [no fuel]-West Conshohocken,PA","100 Crawford Ave, West Conshohocken,PA 19428|(610) 825-0424|24 hrs|253"
-75.7718333,41.0597683,"WAWA [Diesel]-White Haven,PA","1-17 Rt 940, White Haven,PA 18661|(570) 443-2130|24 hrs|270"
-75.499804,40.651024,"WAWA [Diesel]-Whitehall,PA","2985 Macarthur Rd, Whitehall,PA 18052|(610) 439-2414|24 hrs|8014"
-75.115274,40.14498,"WAWA [Diesel]-Willow Grove,PA","201 York Rd, Willow Grove,PA 19090|(215) 706-2071|24 hrs|8063"
-75.35365,39.87063,"WAWA [no fuel]-Woodlyn,PA","1920 West Mcdade Blvd., Woodlyn,PA 19094|(610) 874-9866|24 hrs|223"
-75.345913,39.88273,"WAWA [no fuel]-Woodlyn,PA","510 Fairview Road, Woodlyn,PA 19094|(610) 833-9958|24 hrs|35"
-75.160694,40.078999,"WAWA [Diesel]-Wyncote,PA","8250 Limekiln Pk, Wyncote,PA 19095|(215) 422-3018|24 hrs|8080"
-75.9754958,40.306223,"WAWA [Diesel]-Wyomissing,PA","2005 Museum Rd, Wyomissing,PA 19610|(610) 775-5900|24 hrs|8010"
-75.980596,40.3553097,"WAWA [Diesel]-Wyomissing,PA","2709 North Meridian Blvd, Wyomissing,PA 19610|(610) 372-0333|24 hrs|147"
-75.954642,40.3359124,"WAWA [Diesel]-Wyomissing,PA","837 Penn Ave, Wyomissing,PA 19610|none listed|24 hrs|8124"
-74.837281,40.241612,"WAWA [no fuel]-Yardley,PA","44 South Main Street, Yardley,PA 19067|(215) 493-0533|24 hrs|59"
-75.51907,40.29588,"WAWA [Diesel]-Zieglerville,PA","3 Big Road, Zieglerville,PA 19492|(610) 287-2092|24 hrs|281"
-77.461762,37.686958,"WAWA [Diesel]-Ashland,VA","100 North Washington Hwy, Ashland,VA 23005|(804) 412-8088|24 hrs|8652"
-77.460301,37.686259,"WAWA [Diesel]-Ashland,VA","10373 Sliding Hill Rd, Ashland,VA 23005|(804) 550-2970|24 hrs|8607"
-77.42569,38.914162,"WAWA [Diesel]-Chantilly,VA","3450 Historc Sully Way, Chantilly,VA 20151|(703) 689-8917|24 hrs|8639"
-78.434117,38.132216,"WAWA [Diesel]-Charlottesville,VA","3267 Proffit Rd, Charlottesville,VA 22911|(434) 260-0074|24 hrs|8659"
-78.45291,38.034114,"WAWA [Diesel]-Charlottesville,VA","820 Pantops Corner Way, Charlottesville,VA 22911|(434) 485-0344|24 hrs|8667"
-76.224937,36.657953,"WAWA [Diesel]-Chesapeake,VA","101 Hillcrest Pkwy, Chesapeake,VA 23328|(757) 432-1900|24 hrs|8613"
-76.41611,36.86583,"WAWA [Diesel]-Chesapeake,VA","3408 Western Branch Blvd, Chesapeake,VA 23321|(757) 638-6431|24 hrs|695"
-76.226084,36.742722,"WAWA [Diesel]-Chesapeake,VA","471 Kempsville Road, Chesapeake,VA 23320|(757) 549-1670|24 hrs|8632"
-76.235893,36.79093,"WAWA [Diesel]-Chesapeake,VA","720 Woodlake Dr, Chesapeake,VA 23320|(757) 420-3053|24 hrs|654"
-77.49772,37.36421,"WAWA [Diesel]-Chester,VA","11021 Ironbridge Road, Chester,VA 23831|(804) 706-6623|24 hrs|670"
-77.4168539,37.3675377,"WAWA [Diesel]-Chester,VA","11701 Jefferson Davis Hwy, Chester,VA 23831|(804) 717-9475|24 hrs|692"
-77.3451336,37.3471224,"WAWA [Diesel]-Chester,VA","600 E Hundred Road, Chester,VA 23836|(804) 530-0822|24 hrs|676"
-77.38111,37.253107,"WAWA [Diesel]-Colonial Heights,VA","1270 Temple Ave, Colonial Heights,VA 23834|(804) 520-6982|24 hrs|8624"
-77.4093054,37.3059669,"WAWA [Diesel]-Colonial Heights,VA","15840 Jefferson Davis Hwy, Colonial Heights,VA 23834|(804) 526-6022|24 hrs|684"
-77.4102828,37.244336,"WAWA [Diesel]-Colonial Heights,VA","604 Boulevard, Colonial Heights,VA 23834|(804) 526-9823|24 hrs|693"
-77.506724,38.225843,"WAWA [Diesel]-Fredericksburg,VA","10060 Jefferson Davis Hwy, Fredericksburg,VA 22407|(540) 710-7970|24 hrs|8617"
-77.515,38.24722,"WAWA [Diesel]-Fredericksburg,VA","10626-10630 Courthouse Road, Fredericksburg,VA 22407|(540) 898-4278|24 hrs|663"
-77.5134059,38.2972981,"WAWA [Diesel]-Fredericksburg,VA","1140 Carl D Silver Pkwy, Fredericksburg,VA 22401|(540) 785-3438|24 hrs|660"
-77.49328,38.2495563,"WAWA [Diesel]-Fredericksburg,VA","199 Falcon Drive, Fredericksburg,VA 22408|(540) 834-2025|24 hrs|691"
-77.4999865,38.2958595,"WAWA [Diesel]-Fredericksburg,VA","2390 Plank Road, Fredericksburg,VA 22401|(540) 899-2043|24 hrs|667"
-77.4506561,38.3161648,"WAWA [Diesel]-Fredericksburg,VA","275 Butler Road, Fredericksburg,VA 22405|(540) 899-2796|24 hrs|688"
-77.44773,38.27138,"WAWA [Diesel]-Fredericksburg,VA","3402 Shannon Park Drive, Fredericksburg,VA 22401|(540) 368-3924|24 hrs|658"
-77.5381463,38.2895739,"WAWA [Diesel]-Fredericksburg,VA","4527 Plank Road, Fredericksburg,VA 22407|(540) 785-5535|24 hrs|664"
-77.494438,38.264457,"WAWA [Diesel]-Fredericksburg,VA","4625 Harrison Rd, Fredericksburg,VA 22408|(540) 898-3701|24 hrs|653"
-77.5102048,38.3552881,"WAWA [Diesel]-Fredericksburg,VA","830 Warrenton Road, Fredericksburg,VA 22406|(540) 373-0571|24 hrs|668"
-77.496477,38.344096,"WAWA [Diesel]-Fredericksburg,VA","9 South Gateway Drive, Fredericksburg,VA 22406|(540) 373-6203|24 hrs|8627"
-77.622453,38.792561,"WAWA No Diesel]-Gainesville,VA","14461 Lee Hwy, Gainesville,VA 20155|(571) 261-4089|24 hrs|651"
-77.4609461,37.6428662,"WAWA [No Diesel]-Glen Allen,VA","8800 Brook Rd, Glen Allen,VA 23060|(804) 264-4698|24 hrs|677"
-76.32494,37.03291,"WAWA [Diesel]-Hampton,VA","301 E Mercury Blvd, Hampton,VA 23663|(757) 589-4169|24 hrs|8642"
-76.409513,37.036338,"WAWA [Diesel]-Hamtpon,VA","2401 W Mercury Blvd, Hamtpon,VA 23666|(757) 825-0941|24 hrs|8629"
-76.523697,37.34456,"WAWA [No Diesel]-Hayes,VA","5120 George Washington Mem Hwy, Hayes,VA 23072|(804) 693-3010|24 hrs|652"
-77.6507074,37.663638,"WAWA [Diesel]-Henrico,VA","12564 Broad St, Henrico,VA 23233|(804) 360-2119|24 hrs|696"
-77.34916,37.512112,"WAWA [Diesel]-Henrico,VA","5301 South Laburnum Ave, Henrico,VA 23231|(804) 226-1040|24 hrs|8626"
-77.531451,37.625474,"WAWA [Diesel]-Henrico,VA","8017 West Broad St, Henrico,VA 23294|(804) 290-4374|24 hrs|8603"
-77.509054,37.6351848,"WAWA [Diesel]-Henrico,VA","8851 Staple Milsl Rd, Henrico,VA 23228|(804) 262-7335|24 hrs|682"
-77.5639383,37.6123467,"WAWA [Diesel]-Henrico,VA","9100 Three Chopt Road, Henrico,VA 23229|(804) 459-8828|24 hrs|8647"
-77.317196,37.271065,"WAWA [Diesel]-Hopewill,VA","907 Colonial Corner Dr, Hopewill,VA 23860|(804) 452-3089|24 hrs|698"
-77.0768373,38.3396459,"WAWA [Diesel]-King George,VA","5362 James Madison Parkway, King George,VA 22485|(540) 644-8045|24 hrs|669"
-77.515721,38.793354,"WAWA [no fuel]-Manassas,VA","10691 Davidson Place, Manassas,VA 20109|(571) 292-3396|24 hrs|8658"
-77.532134,38.737149,"WAWA [Diesel]-Manassas,VA","11111 Nokesville Rd, Manassas,VA 20112|(703) 257-1630|24 hrs|8637"
-77.448579,38.750636,"WAWA [Diesel]-Manassas,VA","9471 Liberia Ave, Manassas,VA 20110|(571) 363-3039|24 hrs|8644"
-77.328445,37.613597,"WAWA [Diesel]-Mechanicsville,VA","7847 Compass Point Lane, Mechanicsville,VA 23111|(804) 569-6149|24 hrs|8634"
-77.404269,37.649463,"WAWA [Diesel]-Mechanicsville,VA","9179 Chamberlayne Road, Mechanicsville,VA 23005|(804) 746-4052|24 hrs|8602"
-77.583085,37.44244,"WAWA [Diesel]-Midlothian,VA","10135 Hull Street Rd, Midlothian,VA 23112|(804) 674-4381|24 hrs|8625"
-77.6650231,37.4048477,"WAWA [Diesel]-Midlothian,VA","12001 Southshore Point Dr, Midlothian,VA 23112|(804) 639-2015|24 hrs|657"
-77.698802,37.513071,"WAWA [Diesel]-Midlothian,VA","150 Pike View Rd, Midlothian,VA 23113|(804) 794-4518|24 hrs|8623"
-77.6851592,37.4927911,"WAWA [Diesel]-Midlothian,VA","16000 Otterdale Rd, Midlothian,Va 23114|(804) 362-0777|24 hrs|8651"
-77.61056,37.43444,"WAWA [Diesel]-Midlothian,VA","3850 North Baily Bridge Rd, Midlothian,Va 23112|(804) 277-4131|24 hrs|674"
-76.492595,37.100383,"WAWA [Diesel]-Newport News,VA","12095 Jefferson Ave, Newport News,VA 23606|(757) 269-4213|24 hrs|8631"
-76.546437,37.136757,"WAWA [Diesel]-Newport News,VA","14803 Warwick Blvd, Newport News,VA 23608|(757) 874-2704|24 hrs|656"
-76.440159,37.021937,"WAWA [Diesel]-Newport News,VA","5280 W Mercury Blvd, Newport News,VA 23605|(757) 838-0514|24 hrs|8641"
-76.460015,37.0808019,"WAWA [Diesel]-Newport News,VA","772 J Clyde Morris Blvd, Newport News,Va 23601|(757) 873-4737|24 hrs|685"
-76.209498,36.861201,"WAWA [Diesel]-Norfolk,VA","1146 N Military Hwy, Norfolk,VA 23502|(757) 525-9914|24 hrs|8645"
-76.245682,36.863336,"WAWA [Diesel]-Norfolk,VA","3360 E Princess Anne Rd, Norfolk,VA 23502|(757) 855-2060|24 hrs|8633"
-76.22628,36.897096,"WAWA [Diesel]-Norfolk,VA","6301 North Military Hwy, Norfolk,VA 23518|(757) 857-3071|24 hrs|8628"
-76.18059,36.84922,"WAWA [Diesel]-Norfolk,VA","701 N Newtown Road, Norfolk,VA 23502|(757) 785-4462|24 hrs|8661"
-76.318132,36.927,"WAWA [Diesel]-Norfolk,VA","8105 Hampton Blvd, Norfolk,VA 23505|(757) 451-2706|24 hrs|8606"
-76.242218,36.914123,"WAWA [Diesel]-Norfolk,VA","975 East Little Creek Rd, Norfolk,VA 23518|(757) 480-7436|24 hrs|8604"
-77.3703822,37.1891414,"WAWA [Diesel]-Petersburg,VA","3199 South Crater Rd, Petersburg,VA 23805|(804) 862-3551|24 hrs|683"
-76.34026,36.829328,"WAWA [Diesel]-Portsmouth,VA","1200 Frederick Blvd, Portsmouth,VA 23704|(757) 393-0189|24 hrs|8636"
-76.359714,36.810638,"WAWA [No Diesel]-Portsmouth,VA","4005 Victory Blvd, Portsmouth,VA 23701|(757) 488-1472|24 hrs|8612"
-77.60092,37.5057,"WAWA [Diesel]-Richmond,VA","11021 Midlothian Tpk, Richmond,VA 23235|(804) 897-4283|24 hrs|659"
-77.589929,37.648545,"WAWA [Diesel]-Richmond,VA","11052 West Broad St, Richmond,VA 23220|(804) 527-8302|24 hrs|8615"
-77.492729,37.591984,"WAWA [Diesel]-Richmond,VA","2415 Staples Mill Road, Richmond,VA 23230|(804) 354-6804|24 hrs|8630"
-77.46438,37.57462,"WAWA [Diesel]-Richmond,VA","3100 N Boulevard, Richmond,VA 23230|(804) 362-7442|24 hrs|8648"
-77.376609,37.562052,"WAWA [Diesel]-Richmond,VA","3384 Creighton Road, Richmond,VA 23223|(804) 225-8104|24 hrs|8635"
-77.453843,37.603563,"WAWA [Diesel]-Richmond,VA","5221 Brook Rd, Richmond,VA 23227|(804) 266-1031|24 hrs|655"
-77.4892602,37.4352727,"WAWA [Diesel]-Richmond,VA","6019 Ironbridge Rd, Richmond,VA 23234|(804) 275-5484|24 hrs|673"
-77.531188,37.537644,"WAWA [Diesel]-Richmond,VA","7316 Forest Hill Ave, Richmond,VA 23225|(804) 560-0365|24 hrs|8600"
-77.5350652,37.5002095,"WAWA [Diesel]-Richmond,VA","7500 Midlothian Tpk, Richmond,VA 23225|(804) 675-4880|24 hrs|672"
-77.328928,37.524512,"WAWA [Diesel]-Sandston,VA","500 South Airport Dr, Sandston,VA 23150|(804) 652-1890|24 hrs|8605"
-77.411665,38.4675213,"WAWA [Diesel]-Stafford,VA","105 Garrisonville Rd, Stafford,VA 22554|(540) 659-8672|24 hrs|697"
-77.4362746,38.4733348,"WAWA [Diesel]-Stafford,VA","15 Eustace Rd, Stafford,VA 22554|(540) 288-2057|24 hrs|689"
-77.4035364,38.4494934,"WAWA [Diesel]-Stafford,VA","72 Austin Park Dr, Stafford,VA 22554|(540) 288-0655|24 hrs|665"
-77.411549,38.97801,"WAWA [Diesel]-Sterling,VA","23055 Oakgrove Rd, Sterling,VA 20166|(571) 441-2622|24 hrs|8640"
-76.582096,36.777691,"WAWA [Diesel]-Suffolk,VA","2916 Godwin Blvd, Suffolk,VA 23434|(757) 925-2869|24 hrs|8638"
-77.274013,38.89503,"WAWA [Diesel]-Vienna,VA","465 Maple Ave W, Vienna,VA 22180-5606|(703) 559-7944|24 hrs|8669"
-76.1023253,36.7955141,"WAWA [Diesel]-Virginia Beach,VA","1579 Lynnhaven Pkwy, Virginia Beach,VA 23456|(757) 368-9109|24 hrs|679"
-76.021698,36.842954,"WAWA [Diesel]-Virginia Beach,VA","1700 Virginia Beach Blvd, Virginia Beach,VA 23454|(757) 422-6300|24 hrs|8608"
-76.095842,36.833581,"WAWA [Diesel]-Virginia Beach,VA","201 South Rosemont Rd, Virginia Beach,VA 23452|(757) 463-8936|24 hrs|671"
-76.0562546,36.8407938,"WAWA [Diesel]-Virginia Beach,VA","2501 Virginia Beach Blvd, Virginia Beach,Va 23452|(757) 431-3123|24 hrs|678"
-76.07462,36.8443,"WAWA [Diesel]-Virginia Beach,VA","2954 Virginia Beach Blvd, Virginia Beach,VA 23462|(757) 340-2615|24 hrs|694"
-76.126095,36.8225048,"WAWA [Diesel]-Virginia Beach,VA","4377 Holland Rd, Virginia Beach,VA 23462|(757) 326-6464|24 hrs|690"
-76.1362045,36.9048309,"WAWA [Diesel]-Virginia Beach,VA","4800 Shore Dr, Virginia Beach,Va 23455|(757) 460-5329|24 hrs|675"
-76.167887,36.794472,"WAWA [Diesel]-Virginia Beach,VA","5048 Ferrell Pkwy, Virginia Beach,VA 23454|(757) 495-1390|24 hrs|8618"
-76.179441,36.88576,"WAWA [Diesel]-Virginia Beach,VA","5701 Northampton Blvd, Virginia Beach,VA 23455|(757) 460-1114|24 hrs|8609"
-77.808759,38.71672,"WAWA [Diesel]-Warrenton,VA","510 West Shirley Ave, Warrenton,VA 20186|(540) 349-8999|24 hrs|8622"
-76.7115554,37.2732366,"WAWA [no fuel]-Williamsburg,VA","315 Richmond Road, Williamsburg,VA 23185|(757) 258-1322|24 hrs|681"
-76.754348,37.34089,"WAWA [Diesel]-Williamsburg,VA","6446 Richmond Rd, Williamsburg,VA 23188|(757) 500-2450|24 hrs|8664"
-76.6762001,37.2662641,"WAWA [Diesel]-Williamsburg,VA","842 Merrimac Trail, Williamsburg,VA 23185|(757) 220-5046|24 hrs|699"
-77.30028,38.65889,"WAWA [Diesel]-Woodbridge,VA","13355 Minnieville Rd, Woodbridge,VA 22192|(703) 492-9984|24 hrs|661"
-77.28803,38.60791,"WAWA [Diesel]-Woodbridge,VA","15775-1580 Neabsco Rd, Woodbridge,VA 22191|(703) 583-3558|24 hrs|680"
-77.27611,38.63306,"WAWA [Diesel]-Woodbridge,VA","2051 Daniel Stewart Square, Woodbridge,VA 22191|(703) 492-9858|24 hrs|662"
-76.456544,37.121257,"WAWA [Diesel]-Yorktown,VA","2610 George Washington Memorial Highway, Yorktown,VA 23693|(757) 833-7801|24 Hrs|8657"
-76.46515,37.165367,"WAWA [Diesel]-Yorktown,VA","5824 George Washington Hwy, Yorktown,VA 23692|(757) 833-7801|24 hrs|687"
